EQID,Network,Station,STLA,STLO,EVLA,EVLO,Vs30,Rep,Rhyp,Rjb,Rrup,Rx,Ztor,Depth,Azimuth,BackAzimuth,PGA,PGV,PGV/PGA,Mw,FaultType,FWHW,Source2SiteAzimuth,StressDrop,RuptureWidth,RuptureLength,RuptureArea,Strike,Dip,Rake,Tp,EQInfo,FTInfo,S2SAZ
20120314210500,BO,CHB014,35.48,140.05,35.75,140.93,C,85.44,86.75,82.35,84.32,88.44,10.33,15,249.72,69.21,59.7,3.58,0.06,6.1,4,hw,90,24.4738822609,9.89,13.71,135.52,165,52,-122,-999,http://www.fnet.bosai.go.jp/event/search.php?LANG=en,,90
20120314210500,BO,TKY027,35.69,139.89,35.75,140.93,,94.37,95.55,90.76,92.55,95.92,10.33,15,266.64,86.03,29.17,2.53,0.09,6.1,4,hw,97.66,24.4738822609,9.89,13.71,135.52,165,52,-122,-999,http://www.fnet.bosai.go.jp/event/search.php?LANG=en,,82.34
20120314210500,BO,CHB012,35.57,140.33,35.75,140.93,C,57.56,59.48,54.78,57.69,60.86,10.33,15,250.54,70.19,71.64,3.43,0.05,6.1,4,hw,90,24.4738822609,9.89,13.71,135.52,165,52,-122,-999,http://www.fnet.bosai.go.jp/event/search.php?LANG=en,,90
20120314210500,BO,CHB013,35.43,140.29,35.75,140.93,C,67.8,69.43,63.04,65.59,68.85,10.33,15,239.23,58.86,23.01,1.34,0.06,6.1,4,hw,85.17,24.4738822609,9.89,13.71,135.52,165,52,-122,-999,http://www.fnet.bosai.go.jp/event/search.php?LANG=en,,85.17
20120314210500,BO,CHB010,35.71,140.57,35.75,140.93,C,33.22,36.45,30.7,35.64,36.78,10.33,15,262.56,82.35,68.44,5.33,0.08,6.1,4,hw,90,24.4738822609,9.89,13.71,135.52,165,52,-122,-999,http://www.fnet.bosai.go.jp/event/search.php?LANG=en,,90
20120314210500,BO,TKY023,35.73,139.82,35.75,140.93,,100.18,101.3,96.22,97.91,100.73,10.33,15,268.95,88.31,17.29,1.68,0.1,6.1,4,hw,99.76,24.4738822609,9.89,13.71,135.52,165,52,-122,-999,http://www.fnet.bosai.go.jp/event/search.php?LANG=en,,80.24
20120314210500,BO,TKY014,35.69,139.84,35.75,140.93,,99.43,100.56,95.8,97.5,100.87,10.33,15,266.61,85.97,19.23,1.88,0.1,6.1,4,hw,97.85,24.4738822609,9.89,13.71,135.52,165,52,-122,-999,http://www.fnet.bosai.go.jp/event/search.php?LANG=en,,82.15
20120314210500,BO,IBR005,36.39,140.24,35.75,140.93,C,67.8,69.43,63.04,65.59,68.85,10.33,15,318.72,138.32,85.01,3.89,0.05,6.1,4,hw,85.17,24.4738822609,9.89,13.71,135.52,165,52,-122,-999,http://www.fnet.bosai.go.jp/event/search.php?LANG=en,,85.17
20120314210500,BO,CHB026,35.39,140.24,35.75,140.93,,74.59,76.08,69.6,71.92,75.14,10.33,15,237.84,57.44,20.85,1.37,0.07,6.1,4,hw,83.39,24.4738822609,9.89,13.71,135.52,165,52,-122,-999,http://www.fnet.bosai.go.jp/event/search.php?LANG=en,,83.39
20120314210500,BO,CHB027,35.18,140.27,35.75,140.93,,87.2,88.48,80.55,82.56,81.02,10.33,15,224.12,43.74,9.73,0.78,0.08,6.1,4,hw,69.96,24.4738822609,9.89,13.71,135.52,165,52,-122,-999,http://www.fnet.bosai.go.jp/event/search.php?LANG=en,,69.96
20120314210500,BO,TKY024,35.74,139.86,35.75,140.93,,96.75,97.91,92.69,94.44,97.06,10.33,15,269.86,89.24,21.11,1.85,0.09,6.1,4,hw,100.36,24.4738822609,9.89,13.71,135.52,165,52,-122,-999,http://www.fnet.bosai.go.jp/event/search.php?LANG=en,,79.64
20120314210500,BO,IBR007,36.35,140.6,35.75,140.93,B,9.96,18.01,7.46,17.03,13.54,10.33,15,335.8,155.6,175.48,6.3,0.04,6.1,4,hw,90,24.4738822609,9.89,13.71,135.52,165,52,-122,-999,http://www.fnet.bosai.go.jp/event/search.php?LANG=en,,90
20120314210500,BO,IBR006,36.37,140.45,35.75,140.93,B,96.75,97.91,92.69,94.44,97.06,10.33,15,328.11,147.83,62.93,3.96,0.06,6.1,4,hw,100.36,24.4738822609,9.89,13.71,135.52,165,52,-122,-999,http://www.fnet.bosai.go.jp/event/search.php?LANG=en,,79.64
20120314210500,BO,IBR003,36.59,140.65,35.75,140.93,C,97.19,98.34,89.18,90.21,9.39,10.33,15,344.69,164.52,90.34,3.77,0.04,6.1,4,hw,173.98,24.4738822609,9.89,13.71,135.52,165,52,-122,-999,http://www.fnet.bosai.go.jp/event/search.php?LANG=en,,6.02000000000001
20120314210500,BO,TKY026,35.67,139.86,35.75,140.93,,97.07,98.22,93.63,95.37,99,10.33,15,265.29,84.67,24.43,2.13,0.09,6.1,4,hw,96.69,24.4738822609,9.89,13.71,135.52,165,52,-122,-999,http://www.fnet.bosai.go.jp/event/search.php?LANG=en,,83.31
20120314210500,BO,CHB029,35.69,139.92,35.75,140.93,,91.97,93.18,88.37,90.2,93.57,10.33,15,266.68,86.09,20.15,2.13,0.11,6.1,4,hw,97.59,24.4738822609,9.89,13.71,135.52,165,52,-122,-999,http://www.fnet.bosai.go.jp/event/search.php?LANG=en,,82.41
20120314210500,BO,CHB028,35.77,139.97,35.75,140.93,,87.35,88.62,83.09,85.05,87.3,10.33,15,271.66,91.1,32.46,1.85,0.06,6.1,4,hw,101.38,24.4738822609,9.89,13.71,135.52,165,52,-122,-999,http://www.fnet.bosai.go.jp/event/search.php?LANG=en,,78.62
20120314210500,BO,TKY013,35.66,139.83,35.75,140.93,,99.81,100.94,96.44,98.13,101.86,10.33,15,264.74,84.11,14.49,1.71,0.12,6.1,4,hw,96.36,24.4738822609,9.89,13.71,135.52,165,52,-122,-999,http://www.fnet.bosai.go.jp/event/search.php?LANG=en,,83.64
20120314210500,BO,CHB009,35.61,140.1,35.75,140.93,D,76.68,78.14,74.34,76.52,80.43,10.33,15,258.66,78.17,33,2.25,0.07,6.1,4,hw,90.31,24.4738822609,9.89,13.71,135.52,165,52,-122,-999,http://www.fnet.bosai.go.jp/event/search.php?LANG=en,,89.69
20120314210500,BO,CHB008,35.65,139.9,35.75,140.93,D,93.77,94.96,90.54,92.33,96.15,10.33,15,263.96,83.36,17.12,2.23,0.13,6.1,4,hw,95.48,24.4738822609,9.89,13.71,135.52,165,52,-122,-999,http://www.fnet.bosai.go.jp/event/search.php?LANG=en,,84.52
20120314210500,BO,CHB005,35.74,140.83,35.75,140.93,B,9.31,17.65,6.8,16.51,12.88,10.33,15,262.36,82.3,385.03,28.35,0.07,6.1,4,hw,90,24.4738822609,9.89,13.71,135.52,165,52,-122,1.04999997653,http://www.fnet.bosai.go.jp/event/search.php?LANG=en,,90
20120314210500,BO,CHB004,35.9,140.49,35.75,140.93,B,43.39,45.91,36.94,41.14,38.65,10.33,15,293.27,113.02,47.32,2.38,0.05,6.1,4,hw,114.27,24.4738822609,9.89,13.71,135.52,165,52,-122,-999,http://www.fnet.bosai.go.jp/event/search.php?LANG=en,,65.73
20120314210500,BO,CHB007,35.72,140.23,35.75,140.93,C,63.86,65.6,60.31,62.97,65.9,10.33,15,267.85,87.44,73.08,3.33,0.05,6.1,4,hw,96.68,24.4738822609,9.89,13.71,135.52,165,52,-122,-999,http://www.fnet.bosai.go.jp/event/search.php?LANG=en,,83.32
20120314210500,BO,CHB006,35.78,140.31,35.75,140.93,C,56.67,58.62,52.37,55.41,57.32,10.33,15,273.9,93.53,59.19,3.28,0.06,6.1,4,hw,100.71,24.4738822609,9.89,13.71,135.52,165,52,-122,-999,http://www.fnet.bosai.go.jp/event/search.php?LANG=en,,79.29
20120314210500,BO,CHB001,35.96,139.87,35.75,140.93,C,98.5,99.63,92.66,94.41,91.08,10.33,15,284.16,103.54,77.2,2.96,0.04,6.1,4,hw,112.06,24.4738822609,9.89,13.71,135.52,165,52,-122,-999,http://www.fnet.bosai.go.jp/event/search.php?LANG=en,,67.94
20120314210500,BO,CHB003,35.79,140.06,35.75,140.93,C,79.35,80.76,74.84,77,78.74,10.33,15,274.05,93.54,56.18,3.85,0.07,6.1,4,hw,102.85,24.4738822609,9.89,13.71,135.52,165,52,-122,-999,http://www.fnet.bosai.go.jp/event/search.php?LANG=en,,77.15
20120314210500,BO,CHB002,35.79,139.9,35.75,140.93,B,93.15,94.35,88.68,90.51,92.28,10.33,15,273.02,92.42,23.07,1.27,0.05,6.1,4,hw,102.75,24.4738822609,9.89,13.71,135.52,165,52,-122,-999,http://www.fnet.bosai.go.jp/event/search.php?LANG=en,,77.25
20120314210500,BO,CHB011,35.6,140.5,35.75,140.93,C,42.17,44.76,39.15,43.14,45.24,10.33,15,247.71,67.46,55.38,3.09,0.06,6.1,4,hw,90,24.4738822609,9.89,13.71,135.52,165,52,-122,-999,http://www.fnet.bosai.go.jp/event/search.php?LANG=en,,90
20120314210500,BO,CHB024,35.63,140.08,35.75,140.93,C,78.28,79.71,75.59,77.73,81.6,10.33,15,260.99,80.49,21.64,2.16,0.1,6.1,4,hw,92.29,24.4738822609,9.89,13.71,135.52,165,52,-122,-999,http://www.fnet.bosai.go.jp/event/search.php?LANG=en,,87.71
20120314210500,BO,IBR016,35.91,140.05,35.75,140.93,C,99.81,100.94,96.44,98.13,101.86,10.33,15,283.13,102.61,47.26,2.71,0.06,6.1,4,hw,96.36,24.4738822609,9.89,13.71,135.52,165,52,-122,-999,http://www.fnet.bosai.go.jp/event/search.php?LANG=en,,83.64
20120314210500,BO,IBR017,35.95,140.32,35.75,140.93,C,56.67,58.62,52.37,55.41,57.32,10.33,15,292.69,112.33,137.01,4.98,0.04,6.1,4,hw,100.71,24.4738822609,9.89,13.71,135.52,165,52,-122,-999,http://www.fnet.bosai.go.jp/event/search.php?LANG=en,,79.29
20120314210500,BO,IBR014,36.07,140.19,35.75,140.93,C,42.17,44.76,39.15,43.14,45.24,10.33,15,298.73,118.3,38.03,2.55,0.07,6.1,4,hw,90,24.4738822609,9.89,13.71,135.52,165,52,-122,-999,http://www.fnet.bosai.go.jp/event/search.php?LANG=en,,90
20120314210500,BO,IBR015,36.07,139.91,35.75,140.93,C,99.43,100.56,95.8,97.5,100.87,10.33,15,291.45,110.85,22.27,1.51,0.07,6.1,4,hw,97.85,24.4738822609,9.89,13.71,135.52,165,52,-122,-999,http://www.fnet.bosai.go.jp/event/search.php?LANG=en,,82.15
20120314210500,BO,IBR012,36.19,140.29,35.75,140.93,C,87.35,88.62,83.09,85.05,87.3,10.33,15,310.38,130.01,76.82,4.46,0.06,6.1,4,hw,101.38,24.4738822609,9.89,13.71,135.52,165,52,-122,-999,http://www.fnet.bosai.go.jp/event/search.php?LANG=en,,78.62
20120314210500,BO,IBR013,36.16,140.49,35.75,140.93,C,57.56,59.48,54.78,57.69,60.86,10.33,15,318.96,138.7,120.66,7.49,0.06,6.1,4,hw,90,24.4738822609,9.89,13.71,135.52,165,52,-122,-999,http://www.fnet.bosai.go.jp/event/search.php?LANG=en,,90
20120314210500,BO,IBR010,36.18,139.97,35.75,140.93,C,78.28,79.71,75.59,77.73,81.6,10.33,15,299.38,118.81,43.81,2.8,0.06,6.1,4,hw,92.29,24.4738822609,9.89,13.71,135.52,165,52,-122,-999,http://www.fnet.bosai.go.jp/event/search.php?LANG=en,,87.71
20120314210500,BO,IBR011,36.13,140.09,35.75,140.93,C,86.77,88.06,79.55,81.59,69.79,10.33,15,299.16,118.67,40.8,3.02,0.07,6.1,4,hw,124.33,24.4738822609,9.89,13.71,135.52,165,52,-122,-999,http://www.fnet.bosai.go.jp/event/search.php?LANG=en,,55.67
20120314210500,BO,IBR018,35.98,140.63,35.75,140.93,C,74.59,76.08,69.6,71.92,75.14,10.33,15,313.39,133.22,80.77,4.59,0.06,6.1,4,hw,83.39,24.4738822609,9.89,13.71,135.52,165,52,-122,-999,http://www.fnet.bosai.go.jp/event/search.php?LANG=en,,83.39
20160416012500,BO,KMM007,32.83,131.12,32.75,130.76,C,34.75,36.77,19.64,19.78,-19.64,2.3,12,76.3,256.5,393.64,40.73,0.1,7.3,4,fw,-90,45.8883948303,16.26,86.9,1412.54,226,84,-142,5.26399988234,http://www.fnet.bosai.go.jp/event/search.php?LANG=en,,-90
20160416012500,BO,NGS008,32.92,130.18,32.75,130.76,B,57.28,58.53,53.09,54.73,54.79,2.3,12,289.38,109.07,60.76,4.55,0.07,7.3,4,hw,90,45.8883948303,16.26,86.9,1412.54,226,84,-142,-999,http://www.fnet.bosai.go.jp/event/search.php?LANG=en,,90
20160416012500,BO,NGS009,32.85,130.02,32.75,130.76,B,70.09,71.11,58.94,60.55,60.64,2.3,12,278.63,98.23,89.61,9.06,0.1,7.3,4,hw,89.66,45.8883948303,16.26,86.9,1412.54,226,84,-142,-999,http://www.fnet.bosai.go.jp/event/search.php?LANG=en,,89.66
20160416012500,BO,KGS001,32.19,130.18,32.75,130.76,B,82.85,83.72,35.36,35.46,1.23,2.3,12,221.8,41.49,118.26,5.47,0.05,7.3,4,hw,2,45.8883948303,16.26,86.9,1412.54,226,84,-142,-999,http://www.fnet.bosai.go.jp/event/search.php?LANG=en,,2
20160416012500,BO,SAG008,33.1,130.1,32.75,130.76,B,73.16,74.13,72.51,74.04,74.21,2.3,12,302.31,121.95,72.35,9.43,0.13,7.3,4,hw,90,45.8883948303,16.26,86.9,1412.54,226,84,-142,-999,http://www.fnet.bosai.go.jp/event/search.php?LANG=en,,90
20160416012500,BO,NGS007,32.91,129.78,32.75,130.76,B,93.48,94.25,79.6,81.08,80.13,2.3,12,280.73,100.2,17.49,1.39,0.08,7.3,4,hw,80.39,45.8883948303,16.26,86.9,1412.54,226,84,-142,-999,http://www.fnet.bosai.go.jp/event/search.php?LANG=en,,80.39
20160416012500,BO,NGS005,33.04,129.92,32.75,130.76,C,85.1,85.94,80.66,82.15,82.36,2.3,12,291.96,111.5,42.25,4.09,0.1,7.3,4,hw,90,45.8883948303,16.26,86.9,1412.54,226,84,-142,-999,http://www.fnet.bosai.go.jp/event/search.php?LANG=en,,90
20160416012500,BO,KGS003,32.06,130.59,32.75,130.76,C,79.03,79.94,43.59,43.65,-40.63,2.3,12,192.04,11.95,77.59,6.64,0.09,7.3,4,fw,-68.74,45.8883948303,16.26,86.9,1412.54,226,84,-142,-999,http://www.fnet.bosai.go.jp/event/search.php?LANG=en,,-68.74
20160416012500,BO,OIT008,33.26,131.02,32.75,130.76,B,60.73,61.91,20.38,22.09,20.59,2.3,12,23.35,203.49,77.72,12.71,0.16,7.3,4,hw,110.41,45.8883948303,16.26,86.9,1412.54,226,84,-142,-999,http://www.fnet.bosai.go.jp/event/search.php?LANG=en,,69.59
20160416012500,BO,OIT009,33.26,131.34,32.75,130.76,C,77.98,78.89,30.65,30.74,-0.87,2.3,12,44.06,224.38,646.44,81.83,0.13,7.3,4,fw,-178.38,45.8883948303,16.26,86.9,1412.54,226,84,-142,1.1899999734,http://www.fnet.bosai.go.jp/event/search.php?LANG=en,,-1.62
20160416012500,BO,OIT006,33.42,131.31,32.75,130.76,B,90.6,91.39,43.44,43.9,11.22,2.3,12,34.58,214.88,93.4,6.91,0.07,7.3,4,hw,165.18,45.8883948303,16.26,86.9,1412.54,226,84,-142,-999,http://www.fnet.bosai.go.jp/event/search.php?LANG=en,,14.82
20160416012500,BO,MYZ019,32.5,131.44,32.75,130.76,B,69.89,70.91,66.86,66.9,-66.86,2.3,12,113.43,293.79,62.21,6.39,0.1,7.3,4,fw,-90,45.8883948303,16.26,86.9,1412.54,226,84,-142,-999,http://www.fnet.bosai.go.jp/event/search.php?LANG=en,,-90
20160416012500,BO,OIT005,33.45,131.11,32.75,130.76,B,84.5,85.35,41.55,42.76,29.68,2.3,12,22.8,202.99,59.09,5.01,0.08,7.3,4,hw,135.98,45.8883948303,16.26,86.9,1412.54,226,84,-142,-999,http://www.fnet.bosai.go.jp/event/search.php?LANG=en,,44.02
20160416012500,BO,KMM016,32.2,130.78,32.75,130.76,C,61.72,62.87,41.6,41.66,-41.6,2.3,12,178.8,358.81,87.56,12.43,0.14,7.3,4,fw,-90,45.8883948303,16.26,86.9,1412.54,226,84,-142,-999,http://www.fnet.bosai.go.jp/event/search.php?LANG=en,,-90
20160416012500,BO,KMM017,32.26,130.93,32.75,130.76,B,57.21,58.46,47.92,47.98,-47.92,2.3,12,164.36,344.44,95.45,9.89,0.1,7.3,4,fw,-90,45.8883948303,16.26,86.9,1412.54,226,84,-142,-999,http://www.fnet.bosai.go.jp/event/search.php?LANG=en,,-90
20160416012500,BO,KMM014,32.4,130.83,32.75,130.76,A,40.04,41.8,30.43,30.52,-30.43,2.3,12,171.24,351.28,132.65,7.44,0.06,7.3,4,fw,-90,45.8883948303,16.26,86.9,1412.54,226,84,-142,-999,http://www.fnet.bosai.go.jp/event/search.php?LANG=en,,-90
20160416012500,BO,KMM015,32.22,130.4,32.75,130.76,C,68.36,69.41,23.42,23.53,-14.55,2.3,12,209.53,29.34,115.55,8.6,0.07,7.3,4,fw,-38.41,45.8883948303,16.26,86.9,1412.54,226,84,-142,-999,http://www.fnet.bosai.go.jp/event/search.php?LANG=en,,-38.41
20160416012500,BO,KMM012,32.51,130.6,32.75,130.76,C,31.04,33.28,6.06,6.48,-6.06,2.3,12,208.89,28.8,202.2,26.44,0.13,7.3,4,fw,-90,45.8883948303,16.26,86.9,1412.54,226,84,-142,-999,http://www.fnet.bosai.go.jp/event/search.php?LANG=en,,-90
20160416012500,BO,KMM022,32.19,130.03,32.75,130.76,C,92.82,93.6,45.87,46.32,11.48,2.3,12,228.34,47.95,86.99,4.66,0.05,7.3,4,hw,14.37,45.8883948303,16.26,86.9,1412.54,226,84,-142,-999,http://www.fnet.bosai.go.jp/event/search.php?LANG=en,,14.37
20160416012500,BO,KMM010,32.61,130.49,32.75,130.76,D,30.04,32.35,8.45,10.41,10.15,2.3,12,239.1,58.95,106.95,13.68,0.13,7.3,4,hw,90,45.8883948303,16.26,86.9,1412.54,226,84,-142,-999,http://www.fnet.bosai.go.jp/event/search.php?LANG=en,,90
20160416012500,BO,KMM011,32.62,130.87,32.75,130.76,C,17.95,21.59,16.8,16.96,-16.8,2.3,12,147.34,327.39,467.98,29.05,0.06,7.3,4,fw,-90,45.8883948303,16.26,86.9,1412.54,226,84,-142,-999,http://www.fnet.bosai.go.jp/event/search.php?LANG=en,,-90
20160416012500,BO,KGS002,32.09,130.35,32.75,130.76,B,82.87,83.73,37.88,37.95,-20.31,2.3,12,207.85,27.63,63.9,4.97,0.08,7.3,4,fw,-32.42,45.8883948303,16.26,86.9,1412.54,226,84,-142,-999,http://www.fnet.bosai.go.jp/event/search.php?LANG=en,,-32.42
20160416012500,BO,FKO008,33.57,130.85,32.75,130.76,B,91.19,91.98,58.73,60.27,57.47,2.3,12,5.37,185.42,78.14,8.49,0.11,7.3,4,hw,107.74,45.8883948303,16.26,86.9,1412.54,226,84,-142,-999,http://www.fnet.bosai.go.jp/event/search.php?LANG=en,,72.26
20160416012500,BO,KMM018,32.39,130.39,32.75,130.76,B,53.04,54.38,5.47,5.99,0.83,2.3,12,221.49,41.29,73.24,3.32,0.05,7.3,4,hw,8.66,45.8883948303,16.26,86.9,1412.54,226,84,-142,-999,http://www.fnet.bosai.go.jp/event/search.php?LANG=en,,8.66
20160416012500,BO,KMM019,32.45,130.18,32.75,130.76,B,63.8,64.92,22.73,24.12,18.57,2.3,12,238.94,58.63,39.56,2.16,0.05,7.3,4,hw,50.66,45.8883948303,16.26,86.9,1412.54,226,84,-142,-999,http://www.fnet.bosai.go.jp/event/search.php?LANG=en,,50.66
20160416012500,BO,KGS006,31.91,130.7,32.75,130.76,C,94.1,94.86,63.08,63.13,-60.47,2.3,12,183.45,3.42,79.68,5.13,0.06,7.3,4,fw,-73.43,45.8883948303,16.26,86.9,1412.54,226,84,-142,-999,http://www.fnet.bosai.go.jp/event/search.php?LANG=en,,-73.43
20160416012500,BO,MYZ011,32,131.26,32.75,130.76,B,96.03,96.78,91,91.03,-91,2.3,12,150.93,331.2,45.19,3.85,0.09,7.3,4,fw,-90,45.8883948303,16.26,86.9,1412.54,226,84,-142,-999,http://www.fnet.bosai.go.jp/event/search.php?LANG=en,,-90
20160416012500,BO,MYZ010,32,130.97,32.75,130.76,C,86.16,86.99,70.55,70.59,-70.55,2.3,12,166.68,346.79,46.85,4.22,0.09,7.3,4,fw,-90,45.8883948303,16.26,86.9,1412.54,226,84,-142,-999,http://www.fnet.bosai.go.jp/event/search.php?LANG=en,,-90
20160416012500,BO,FKO011,33.32,130.51,32.75,130.76,C,67.46,68.52,59.25,60.85,60.95,2.3,12,339.77,159.64,120.3,11.95,0.1,7.3,4,hw,90,45.8883948303,16.26,86.9,1412.54,226,84,-142,-999,http://www.fnet.bosai.go.jp/event/search.php?LANG=en,,90
20160416012500,BO,FKO010,33.42,130.67,32.75,130.76,B,74.87,75.82,55.37,57,57.07,2.3,12,353.36,173.31,63.84,4.81,0.08,7.3,4,hw,90,45.8883948303,16.26,86.9,1412.54,226,84,-142,-999,http://www.fnet.bosai.go.jp/event/search.php?LANG=en,,90
20160416012500,BO,FKO013,33.23,130.56,32.75,130.76,C,55.65,56.93,48.47,50.14,50.17,2.3,12,340.29,160.18,159.34,10.12,0.06,7.3,4,hw,90,45.8883948303,16.26,86.9,1412.54,226,84,-142,-999,http://www.fnet.bosai.go.jp/event/search.php?LANG=en,,90
20160416012500,BO,FKO012,33.33,130.79,32.75,130.76,C,64.27,65.38,39.68,41.39,41.38,2.3,12,2.65,182.67,52.84,10.15,0.19,7.3,4,hw,90,45.8883948303,16.26,86.9,1412.54,226,84,-142,-999,http://www.fnet.bosai.go.jp/event/search.php?LANG=en,,90
20160416012500,BO,FKO015,33.16,130.41,32.75,130.76,D,56.37,57.63,54.98,56.61,56.68,2.3,12,323.81,143.62,210.33,22.69,0.11,7.3,4,hw,90,45.8883948303,16.26,86.9,1412.54,226,84,-142,-999,http://www.fnet.bosai.go.jp/event/search.php?LANG=en,,90
20160416012500,BO,FKO014,33.15,130.82,32.75,130.76,B,44.24,45.84,24.43,26.23,26.13,2.3,12,6.81,186.84,71.97,13.76,0.19,7.3,4,hw,90,45.8883948303,16.26,86.9,1412.54,226,84,-142,-999,http://www.fnet.bosai.go.jp/event/search.php?LANG=en,,90
20160416012500,BO,FKO016,33.02,130.45,32.75,130.76,C,41.45,43.16,41.13,42.84,42.83,2.3,12,314.78,134.61,118.88,7.21,0.06,7.3,4,hw,90,45.8883948303,16.26,86.9,1412.54,226,84,-142,-999,http://www.fnet.bosai.go.jp/event/search.php?LANG=en,,90
20160416012500,BO,NGS019,32.9,129.96,32.75,130.76,C,77.01,77.94,67.41,68.97,69.1,2.3,12,282.45,102.02,108.37,8.03,0.07,7.3,4,hw,89.03,45.8883948303,16.26,86.9,1412.54,226,84,-142,-999,http://www.fnet.bosai.go.jp/event/search.php?LANG=en,,89.03
20160416012500,BO,SAG003,33.37,130.21,32.75,130.76,C,86.08,86.92,84.66,86.12,86.36,2.3,12,323.16,142.86,62.8,3.39,0.05,7.3,4,hw,90,45.8883948303,16.26,86.9,1412.54,226,84,-142,-999,http://www.fnet.bosai.go.jp/event/search.php?LANG=en,,90
20160416012500,BO,MYZ005,32.43,131.6,32.75,130.76,A,86.56,87.39,83.4,83.44,-83.4,2.3,12,114.37,294.82,19.09,5.45,0.29,7.3,4,fw,-90,45.8883948303,16.26,86.9,1412.54,226,84,-142,-999,http://www.fnet.bosai.go.jp/event/search.php?LANG=en,,-90
20160416012500,BO,NGS011,32.78,130.2,32.75,130.76,B,52.54,53.9,41.49,43.2,43.19,2.3,12,273.89,93.59,49.17,5.55,0.11,7.3,4,hw,90,45.8883948303,16.26,86.9,1412.54,226,84,-142,-999,http://www.fnet.bosai.go.jp/event/search.php?LANG=en,,90
20160416012500,BO,NGS010,32.74,129.88,32.75,130.76,C,83.03,83.9,60.97,62.51,59.9,2.3,12,268.88,88.41,81.37,3.19,0.04,7.3,4,hw,73.13,45.8883948303,16.26,86.9,1412.54,226,84,-142,-999,http://www.fnet.bosai.go.jp/event/search.php?LANG=en,,73.13
20160416012500,BO,NGS013,32.58,129.76,32.75,130.76,B,95.94,96.69,64.16,65.52,55.01,2.3,12,258.81,78.27,14.05,1.68,0.12,7.3,4,hw,57.03,45.8883948303,16.26,86.9,1412.54,226,84,-142,-999,http://www.fnet.bosai.go.jp/event/search.php?LANG=en,,57.03
20160416012500,BO,NGS012,32.79,130.35,32.75,130.76,C,39.15,40.94,31.51,33.27,33.21,2.3,12,275.87,95.64,54.99,9.51,0.17,7.3,4,hw,90,45.8883948303,16.26,86.9,1412.54,226,84,-142,-999,http://www.fnet.bosai.go.jp/event/search.php?LANG=en,,90
20160416012500,BO,NGS014,32.61,130.18,32.75,130.76,D,56.38,57.64,29.48,31.22,30.75,2.3,12,253.89,73.58,172.71,11.64,0.07,7.3,4,hw,80.8,45.8883948303,16.26,86.9,1412.54,226,84,-142,-999,http://www.fnet.bosai.go.jp/event/search.php?LANG=en,,80.8
