EQID,Network,Station,STLA,STLO,EVLA,EVLO,Vs30,Rep,Rhyp,Rjb,Rrup,Rx,Ztor,Depth,Azimuth,BackAzimuth,PGA,PGV,PGV/PGA,Mw,FaultType,FWHW,Source2SiteAzimuth,StressDrop,RuptureWidth,RuptureLength,RuptureArea,Strike,Dip,Rake,Tp,EQInfo,FTInfo,S2SAZ
20160416012500,BO,OIT015,32.97,131.4,32.75,130.76,C,64.21,65.33,29.71,29.8,-7.41,2.3,12,67.58,247.93,124.75,14.06,0.11,7.3,4,fw,-165.55,45.8883948303,16.26,86.9,1412.54,226,84,-142,-999,http://www.fnet.bosai.go.jp/event/search.php?LANG=en,,-14.45
20160416012500,BO,SAG007,33.26,130.3,32.75,130.76,D,71.11,72.11,69.86,71.41,71.56,2.3,12,322.78,142.53,91.2,14.34,0.16,7.3,4,hw,90,45.8883948303,16.26,86.9,1412.54,226,84,-142,-999,http://www.fnet.bosai.go.jp/event/search.php?LANG=en,,90
20160416012500,BO,OIT017,32.86,131.66,32.75,130.76,A,84.78,85.63,57.18,57.23,-23.78,2.3,12,81.88,262.36,18.32,6.32,0.35,7.3,4,fw,-155.42,45.8883948303,16.26,86.9,1412.54,226,84,-142,-999,http://www.fnet.bosai.go.jp/event/search.php?LANG=en,,-24.58
20160416012500,BO,OIT010,33.23,131.59,32.75,130.76,C,94.11,94.87,49.21,49.27,-7.88,2.3,12,55.43,235.88,86.78,19.69,0.23,7.3,4,fw,-170.78,45.8883948303,16.26,86.9,1412.54,226,84,-142,-999,http://www.fnet.bosai.go.jp/event/search.php?LANG=en,,-9.22
20160416012500,BO,OIT013,33.07,131.59,32.75,130.76,A,85.47,86.31,45.89,45.95,-11.77,2.3,12,65.27,245.72,27.71,6.14,0.22,7.3,4,fw,-165.14,45.8883948303,16.26,86.9,1412.54,226,84,-142,-999,http://www.fnet.bosai.go.jp/event/search.php?LANG=en,,-14.86
20160416012500,BO,OIT012,33.07,131.37,32.75,130.76,B,66.93,68,25.4,25.5,-4.29,2.3,12,58.55,238.88,88.74,20.04,0.23,7.3,4,fw,-170.27,45.8883948303,16.26,86.9,1412.54,226,84,-142,-999,http://www.fnet.bosai.go.jp/event/search.php?LANG=en,,-9.72999999999999
20160416012500,BO,KMM005,32.88,130.88,32.75,130.76,B,17.41,21.15,0,2.45,0.85,2.3,12,38.33,218.4,481.48,53.79,0.11,7.3,4,hw,90,45.8883948303,16.26,86.9,1412.54,226,84,-142,3.00999993272,http://www.fnet.bosai.go.jp/event/search.php?LANG=en,,90
20160416012500,BO,KMM004,32.93,131.12,32.75,130.76,C,39.07,40.87,11.75,11.97,-11.75,2.3,12,59.36,239.56,301.82,77.35,0.26,7.3,4,fw,-90,45.8883948303,16.26,86.9,1412.54,226,84,-142,3.93399991207,http://www.fnet.bosai.go.jp/event/search.php?LANG=en,,-90
20160416012500,BO,MYZ020,32.46,131.15,32.75,130.76,B,48.97,50.42,48.98,49.03,-48.98,2.3,12,132.34,312.54,157.18,12.03,0.08,7.3,4,fw,-90,45.8883948303,16.26,86.9,1412.54,226,84,-142,-999,http://www.fnet.bosai.go.jp/event/search.php?LANG=en,,-90
20160416012500,BO,KMM006,32.79,130.78,32.75,130.76,C,4.7,12.89,1.03,3.57,2.73,2.3,12,17.64,197.65,494.18,84.9,0.17,7.3,4,hw,90,45.8883948303,16.26,86.9,1412.54,226,84,-142,-999,http://www.fnet.bosai.go.jp/event/search.php?LANG=en,,90
20160416012500,BO,KMM001,33.12,131.07,32.75,130.76,B,49.87,51.29,4.78,6.84,6.31,2.3,12,35.03,215.2,155.51,33.02,0.21,7.3,4,hw,101.16,45.8883948303,16.26,86.9,1412.54,226,84,-142,2.43599994555,http://www.fnet.bosai.go.jp/event/search.php?LANG=en,,78.84
20160416012500,BO,SAG006,33.19,130.03,32.75,130.76,C,83.65,84.51,83.69,85.16,85.39,2.3,12,305.75,125.36,47.3,6.06,0.13,7.3,4,hw,90,45.8883948303,16.26,86.9,1412.54,226,84,-142,-999,http://www.fnet.bosai.go.jp/event/search.php?LANG=en,,90
20160416012500,BO,KMM013,32.37,130.51,32.75,130.76,C,49.11,50.56,10.03,10.29,-10.03,2.3,12,208.89,28.75,153.84,19.08,0.12,7.3,4,fw,-90,45.8883948303,16.26,86.9,1412.54,226,84,-142,-999,http://www.fnet.bosai.go.jp/event/search.php?LANG=en,,-90
20160416012500,BO,SAG004,33.26,129.88,32.75,130.76,C,99.96,100.68,100.01,101.4,101.71,2.3,12,304.82,124.34,35.73,3.32,0.09,7.3,4,hw,90,45.8883948303,16.26,86.9,1412.54,226,84,-142,-999,http://www.fnet.bosai.go.jp/event/search.php?LANG=en,,90
20160416012500,BO,KGS005,31.9,130.45,32.75,130.76,C,98.95,99.67,58.38,58.43,-43.42,2.3,12,197.28,17.11,56.02,3.82,0.07,7.3,4,fw,-48.05,45.8883948303,16.26,86.9,1412.54,226,84,-142,-999,http://www.fnet.bosai.go.jp/event/search.php?LANG=en,,-48.05
20160416012500,BO,KGS004,32.01,130.19,32.75,130.76,D,97.86,98.59,50.96,51.01,-13.82,2.3,12,213.34,33.04,45.55,5.27,0.12,7.3,4,fw,-15.73,45.8883948303,16.26,86.9,1412.54,226,84,-142,-999,http://www.fnet.bosai.go.jp/event/search.php?LANG=en,,-15.73
20160416012500,BO,KMM002,33.02,130.68,32.75,130.76,C,30.32,32.61,24.33,26.12,26.03,2.3,12,346.2,166.16,155.06,14.79,0.1,7.3,4,hw,90,45.8883948303,16.26,86.9,1412.54,226,84,-142,-999,http://www.fnet.bosai.go.jp/event/search.php?LANG=en,,90
20160416012500,BO,KMM009,32.69,130.99,32.75,130.76,B,22.25,25.28,20.29,20.42,-20.29,2.3,12,109.51,289.63,756.18,31.8,0.04,7.3,4,fw,-90,45.8883948303,16.26,86.9,1412.54,226,84,-142,-999,http://www.fnet.bosai.go.jp/event/search.php?LANG=en,,-90
20160416012500,BO,KMM008,32.69,130.66,32.75,130.76,C,12.12,17.06,1.72,4.12,3.42,2.3,12,233.41,53.36,746.26,84.67,0.11,7.3,4,hw,90,45.8883948303,16.26,86.9,1412.54,226,84,-142,-999,http://www.fnet.bosai.go.jp/event/search.php?LANG=en,,90
20160416012500,BO,KMM021,32.38,130,32.75,130.76,C,82.72,83.58,40.14,41.23,25.3,2.3,12,240.14,59.73,67.21,4.8,0.07,7.3,4,hw,37.92,45.8883948303,16.26,86.9,1412.54,226,84,-142,-999,http://www.fnet.bosai.go.jp/event/search.php?LANG=en,,37.92
20160416012500,BO,KMM020,32.36,130.18,32.75,130.76,B,69.61,70.63,24.05,24.97,12.51,2.3,12,231.81,51.5,38.35,3.14,0.08,7.3,4,hw,30.21,45.8883948303,16.26,86.9,1412.54,226,84,-142,-999,http://www.fnet.bosai.go.jp/event/search.php?LANG=en,,30.21
20160416012500,BO,MYZ006,32.26,131.56,32.75,130.76,B,93.1,93.87,93.36,93.39,-93.36,2.3,12,126.04,306.47,69.96,5.72,0.08,7.3,4,fw,-90,45.8883948303,16.26,86.9,1412.54,226,84,-142,-999,http://www.fnet.bosai.go.jp/event/search.php?LANG=en,,-90
20160416012500,BO,MYZ007,32.24,131.12,32.75,130.76,B,66.35,67.42,63.09,63.13,-63.09,2.3,12,149.83,330.02,36.96,3.96,0.11,7.3,4,fw,-90,45.8883948303,16.26,86.9,1412.54,226,84,-142,-999,http://www.fnet.bosai.go.jp/event/search.php?LANG=en,,-90
20160416012500,BO,MYZ004,32.39,131.33,32.75,130.76,B,67.19,68.25,67.27,67.31,-67.27,2.3,12,126.78,307.09,90.63,5.26,0.06,7.3,4,fw,-90,45.8883948303,16.26,86.9,1412.54,226,84,-142,-999,http://www.fnet.bosai.go.jp/event/search.php?LANG=en,,-90
20160416012500,BO,FKO009,33.5,130.52,32.75,130.76,C,85.45,86.29,71.57,73.11,73.27,2.3,12,344.5,164.37,60.64,5.13,0.08,7.3,4,hw,90,45.8883948303,16.26,86.9,1412.54,226,84,-142,-999,http://www.fnet.bosai.go.jp/event/search.php?LANG=en,,90
20160416012500,BO,MYZ002,32.7,131.68,32.75,130.76,B,86.56,87.39,68.39,68.43,-35.95,2.3,12,93.81,274.3,178.45,9.7,0.05,7.3,4,fw,-148.29,45.8883948303,16.26,86.9,1412.54,226,84,-142,-999,http://www.fnet.bosai.go.jp/event/search.php?LANG=en,,-31.71
20160416012500,BO,MYZ003,32.57,131.66,32.75,130.76,C,86.74,87.57,76.69,76.72,-46.65,2.3,12,103.6,284.08,61.8,8.08,0.13,7.3,4,fw,-142.53,45.8883948303,16.26,86.9,1412.54,226,84,-142,-999,http://www.fnet.bosai.go.jp/event/search.php?LANG=en,,-37.47
20160416012500,BO,MYZ001,32.71,131.31,32.75,130.76,B,51.54,52.92,41.99,42.05,-41.99,2.3,12,95.78,276.07,170.15,17.73,0.1,7.3,4,fw,-90,45.8883948303,16.26,86.9,1412.54,226,84,-142,-999,http://www.fnet.bosai.go.jp/event/search.php?LANG=en,,-90
20160416012500,BO,KMM003,32.93,130.55,32.75,130.76,C,28.35,30.78,27.84,29.62,29.54,2.3,12,315.01,134.9,164.61,19.2,0.12,7.3,4,hw,90,45.8883948303,16.26,86.9,1412.54,226,84,-142,-999,http://www.fnet.bosai.go.jp/event/search.php?LANG=en,,90
20160416012500,BO,SAG005,33.32,130.06,32.75,130.76,B,90.66,91.46,91.09,92.52,92.79,2.3,12,314.23,133.85,35.83,2.9,0.08,7.3,4,hw,90,45.8883948303,16.26,86.9,1412.54,226,84,-142,-999,http://www.fnet.bosai.go.jp/event/search.php?LANG=en,,90
20160416012500,BO,MYZ009,32.05,130.81,32.75,130.76,C,78.53,79.44,55.33,55.38,-55.33,2.3,12,176.62,356.65,61.76,9.1,0.15,7.3,4,fw,-90,45.8883948303,16.26,86.9,1412.54,226,84,-142,-999,http://www.fnet.bosai.go.jp/event/search.php?LANG=en,,-90
20160416012500,BO,FKO006,33.6,130.4,32.75,130.76,C,99.55,100.27,87.49,88.94,89.19,2.3,12,340.19,159.99,70.21,5.87,0.08,7.3,4,hw,90,45.8883948303,16.26,86.9,1412.54,226,84,-142,-999,http://www.fnet.bosai.go.jp/event/search.php?LANG=en,,90
20160416012500,BO,MYZ008,32.11,131.39,32.75,130.76,B,93.1,93.87,92.55,92.58,-92.55,2.3,12,140.24,320.58,122.62,9.4,0.08,7.3,4,fw,-90,45.8883948303,16.26,86.9,1412.54,226,84,-142,-999,http://www.fnet.bosai.go.jp/event/search.php?LANG=en,,-90
20160416012500,BO,FKO005,33.65,130.7,32.75,130.76,C,99.88,100.6,73.2,74.71,73.93,2.3,12,356.5,176.46,108.11,5.46,0.05,7.3,4,hw,99.14,45.8883948303,16.26,86.9,1412.54,226,84,-142,-999,http://www.fnet.bosai.go.jp/event/search.php?LANG=en,,80.86
20110412140700,BO,TCG008,36.56,139.77,37.05,140.64,C,95.31,96.49,86.25,86.75,25.42,8.8,15,235.31,54.79,30.92,1.87,0.06,6.4,3,hw,162.87,41.0868518787,10.33,18.54,191.43,76,89,141,-999,http://www.fnet.bosai.go.jp/event/search.php?LANG=en,,17.13
20110412140700,BO,TCG009,36.73,139.72,37.05,140.64,C,90.26,91.49,80.73,81.22,8.53,8.8,15,246.63,66.08,125.12,4.46,0.04,6.4,3,hw,173.94,41.0868518787,10.33,18.54,191.43,76,89,141,-999,http://www.fnet.bosai.go.jp/event/search.php?LANG=en,,6.06
20110412140700,BO,FKS027,37.07,139.68,37.05,140.64,B,85.6,86.91,76.53,77.04,-17.96,8.8,15,271.63,91.05,35.75,0.92,0.03,6.4,3,fw,-166.43,41.0868518787,10.33,18.54,191.43,76,89,141,-999,http://www.fnet.bosai.go.jp/event/search.php?LANG=en,,-13.57
20110412140700,BO,TCG001,36.94,140.08,37.05,140.64,B,51.35,53.49,41.85,42.76,-1.72,8.8,15,256.38,76.04,40.44,3.48,0.09,6.4,3,fw,-177.64,41.0868518787,10.33,18.54,191.43,76,89,141,-999,http://www.fnet.bosai.go.jp/event/search.php?LANG=en,,-2.36000000000001
20110412140700,BO,TCG002,36.99,139.8,37.05,140.64,B,75.04,76.52,65.68,66.27,-9.89,8.8,15,264.99,84.49,24.83,0.96,0.04,6.4,3,fw,-171.34,41.0868518787,10.33,18.54,191.43,76,89,141,-999,http://www.fnet.bosai.go.jp/event/search.php?LANG=en,,-8.66
20110412140700,BO,TCG003,36.81,139.72,37.05,140.64,B,86.75,88.04,77.15,77.66,0.62,8.8,15,252.58,72.03,22.55,1.07,0.05,6.4,3,hw,179.54,41.0868518787,10.33,18.54,191.43,76,89,141,-999,http://www.fnet.bosai.go.jp/event/search.php?LANG=en,,0.460000000000008
20110412140700,BO,TCG005,36.81,139.93,37.05,140.64,C,69.43,71.03,59.93,60.59,6.05,8.8,15,247.07,66.64,58.38,2.17,0.04,6.4,3,hw,174.2,41.0868518787,10.33,18.54,191.43,76,89,141,-999,http://www.fnet.bosai.go.jp/event/search.php?LANG=en,,5.80000000000001
20110412140700,BO,TCG006,36.76,140.13,37.05,140.64,B,55.81,57.79,46.82,47.7,14.97,8.8,15,235.2,54.9,42.53,3.11,0.07,6.4,3,hw,161.38,41.0868518787,10.33,18.54,191.43,76,89,141,-999,http://www.fnet.bosai.go.jp/event/search.php?LANG=en,,18.62
20110412140700,BO,TCG007,36.57,139.89,37.05,140.64,B,86.21,87.51,77.39,77.95,27.71,8.8,15,231.8,51.35,15.24,0.91,0.06,6.4,3,hw,159.04,41.0868518787,10.33,18.54,191.43,76,89,141,-999,http://www.fnet.bosai.go.jp/event/search.php?LANG=en,,20.96
20110412140700,BO,FKS001,37.79,140.92,37.05,140.64,C,86.01,87.31,81.21,81.68,-71.87,8.8,15,16.45,196.62,44.19,2.69,0.06,6.4,3,fw,-62.25,41.0868518787,10.33,18.54,191.43,76,89,141,-999,http://www.fnet.bosai.go.jp/event/search.php?LANG=en,,-62.25
20110412140700,BO,FKS031,37.34,140.81,37.05,140.64,B,34.99,38.07,29.38,30.67,-25.7,8.8,15,25.53,205.63,65.01,4.32,0.07,6.4,3,fw,-61.05,41.0868518787,10.33,18.54,191.43,76,89,141,-999,http://www.fnet.bosai.go.jp/event/search.php?LANG=en,,-61.05
20110412140700,BO,IBR004,36.55,140.41,37.05,140.64,B,50.38,52.56,42.48,43.38,-15.44,8.8,15,200.58,20.44,134.4,4.07,0.03,6.4,3,fw,-158.68,41.0868518787,10.33,18.54,191.43,76,89,141,-999,http://www.fnet.bosai.go.jp/event/search.php?LANG=en,,-21.32
20110412140700,BO,IBR006,36.37,140.45,37.05,140.64,B,82.5,83.85,83.02,83.49,-83.02,8.8,15,192.69,12.58,89.17,4.53,0.05,6.4,3,fw,-90,41.0868518787,10.33,18.54,191.43,76,89,141,-999,http://www.fnet.bosai.go.jp/event/search.php?LANG=en,,-90
20110412140700,BO,IBR007,36.35,140.6,37.05,140.64,B,91.35,92.58,83.27,83.83,42.39,8.8,15,183.14,3.11,154.2,6.36,0.04,6.4,3,hw,149.44,41.0868518787,10.33,18.54,191.43,76,89,141,-999,http://www.fnet.bosai.go.jp/event/search.php?LANG=en,,30.56
20110412140700,BO,IBR005,36.39,140.24,37.05,140.64,C,82.41,83.76,76.26,76.9,59.08,8.8,15,206.22,25.98,104.32,3.86,0.04,6.4,3,hw,129.35,41.0868518787,10.33,18.54,191.43,76,89,141,-999,http://www.fnet.bosai.go.jp/event/search.php?LANG=en,,50.65
20110412140700,BO,TCG016,36.53,140.16,37.05,140.64,B,72.55,74.09,65.11,65.82,40.41,8.8,15,216.98,36.69,20.06,1.46,0.07,6.4,3,hw,141.72,41.0868518787,10.33,18.54,191.43,76,89,141,-999,http://www.fnet.bosai.go.jp/event/search.php?LANG=en,,38.28
20110412140700,BO,TCG015,36.75,139.71,37.05,140.64,B,89.34,90.59,79.78,80.28,6.42,8.8,15,248.16,67.61,17.27,1.07,0.06,6.4,3,hw,175.38,41.0868518787,10.33,18.54,191.43,76,89,141,-999,http://www.fnet.bosai.go.jp/event/search.php?LANG=en,,4.62
20110412140700,BO,TCG014,36.54,140.17,37.05,140.64,B,70.12,71.7,62.7,63.43,39.29,8.8,15,216.78,36.5,163.78,6.54,0.04,6.4,3,hw,141.28,41.0868518787,10.33,18.54,191.43,76,89,141,-999,http://www.fnet.bosai.go.jp/event/search.php?LANG=en,,38.72
20110412140700,BO,TCG013,36.44,140.02,37.05,140.64,B,87.93,89.2,80.21,80.79,45.72,8.8,15,219.25,38.88,25.52,1.86,0.07,6.4,3,hw,145.3,41.0868518787,10.33,18.54,191.43,76,89,141,-999,http://www.fnet.bosai.go.jp/event/search.php?LANG=en,,34.7
20110412140700,BO,FKS018,37.4,140.36,37.05,140.64,C,45.6,48.01,43.95,44.83,-35.46,8.8,15,326.96,146.79,189.89,9.29,0.05,6.4,3,fw,-126.22,41.0868518787,10.33,18.54,191.43,76,89,141,-999,http://www.fnet.bosai.go.jp/event/search.php?LANG=en,,-53.78
20110412140700,BO,IBR003,36.59,140.65,37.05,140.64,C,51.1,53.26,49.17,50.13,49.35,8.8,15,179.77,359.77,290.98,10.09,0.03,6.4,3,hw,90.61,41.0868518787,10.33,18.54,191.43,76,89,141,-999,http://www.fnet.bosai.go.jp/event/search.php?LANG=en,,89.39
20110412140700,BO,IBR002,36.71,140.71,37.05,140.64,C,23.86,28.18,14.57,17.03,-1.34,8.8,15,171.55,351.59,145.52,13.94,0.1,6.4,3,fw,-174.73,41.0868518787,10.33,18.54,191.43,76,89,141,-999,http://www.fnet.bosai.go.jp/event/search.php?LANG=en,,-5.27000000000001
20110412140700,BO,FKS015,37.02,140.38,37.05,140.64,B,23.86,28.18,14.57,17.03,-1.34,8.8,15,261.98,81.82,68.57,6.61,0.1,6.4,3,fw,-174.73,41.0868518787,10.33,18.54,191.43,76,89,141,-999,http://www.fnet.bosai.go.jp/event/search.php?LANG=en,,-5.27000000000001
20110412140700,BO,IBR001,36.78,140.36,37.05,140.64,D,89.34,90.59,79.78,80.28,6.42,8.8,15,219.87,39.7,110.98,5.22,0.05,6.4,3,hw,175.38,41.0868518787,10.33,18.54,191.43,76,89,141,-999,http://www.fnet.bosai.go.jp/event/search.php?LANG=en,,4.62
20110412140700,BO,FKS017,37.28,140.37,37.05,140.64,C,35.45,38.49,32.38,33.56,-22,8.8,15,316.71,136.55,100.95,9.23,0.09,6.4,3,fw,-137.21,41.0868518787,10.33,18.54,191.43,76,89,141,-999,http://www.fnet.bosai.go.jp/event/search.php?LANG=en,,-42.79
20110412140700,BO,FKS016,37.12,140.19,37.05,140.64,B,40.91,43.58,32.82,33.98,-10.49,8.8,15,281.21,100.94,257.38,12.39,0.05,6.4,3,fw,-161.37,41.0868518787,10.33,18.54,191.43,76,89,141,-999,http://www.fnet.bosai.go.jp/event/search.php?LANG=en,,-18.63
20110412140700,BO,FKS011,37.09,140.9,37.05,140.64,C,23.57,27.94,14.2,16.73,2.3,8.8,15,79.31,259.47,143.88,15.55,0.11,6.4,3,hw,9.3,41.0868518787,10.33,18.54,191.43,76,89,141,-999,http://www.fnet.bosai.go.jp/event/search.php?LANG=en,,9.3
20110412140700,BO,FKS010,37.23,141,37.05,140.64,C,37.73,40.61,28.67,29.99,-8.5,8.8,15,57.49,237.71,195.63,13.64,0.07,6.4,3,fw,-17.25,41.0868518787,10.33,18.54,191.43,76,89,141,-999,http://www.fnet.bosai.go.jp/event/search.php?LANG=en,,-17.25
20110412140700,BO,FKS013,37.09,140.56,37.05,140.64,C,8.79,17.38,6.28,10.81,-6.28,8.8,15,298.7,118.65,282.84,27.61,0.1,6.4,3,fw,-90,41.0868518787,10.33,18.54,191.43,76,89,141,-999,http://www.fnet.bosai.go.jp/event/search.php?LANG=en,,-90
20110412140700,BO,FKS012,36.91,140.79,37.05,140.64,C,20.91,25.74,19.33,21.41,19.5,8.8,15,140.3,320.39,477.16,59.91,0.13,6.4,3,hw,88.11,41.0868518787,10.33,18.54,191.43,76,89,141,1.44199996777,http://www.fnet.bosai.go.jp/event/search.php?LANG=en,,88.11
20110412140700,BO,FKS019,37.6,140.44,37.05,140.64,C,63.83,65.56,64.21,64.81,-64.21,8.8,15,343.42,163.3,136.02,4.44,0.03,6.4,3,fw,-90,41.0868518787,10.33,18.54,191.43,76,89,141,-999,http://www.fnet.bosai.go.jp/event/search.php?LANG=en,,-90
20110412140700,BO,FKS006,37.5,140.76,37.05,140.64,C,51.11,53.26,47.29,48.1,-45.46,8.8,15,11.56,191.63,126.77,5.11,0.04,6.4,3,fw,-74.03,41.0868518787,10.33,18.54,191.43,76,89,141,-999,http://www.fnet.bosai.go.jp/event/search.php?LANG=en,,-74.03
20110412140700,BO,FKS014,36.87,140.43,37.05,140.64,B,27.85,31.63,20.15,22.1,13.29,8.8,15,223,42.88,89.9,4.45,0.05,6.4,3,hw,139.01,41.0868518787,10.33,18.54,191.43,76,89,141,-999,http://www.fnet.bosai.go.jp/event/search.php?LANG=en,,40.99
20110412140700,BO,FKS005,37.64,140.98,37.05,140.64,B,71.8,73.35,65.86,66.44,-52.43,8.8,15,24.85,205.06,93.24,2.98,0.03,6.4,3,fw,-52.76,41.0868518787,10.33,18.54,191.43,76,89,141,-999,http://www.fnet.bosai.go.jp/event/search.php?LANG=en,,-52.76
20110412140700,BO,FKS024,37.4,140.13,37.05,140.64,C,59.23,61.1,54.66,55.37,-36.18,8.8,15,310.25,129.94,55.33,4.27,0.08,6.4,3,fw,-138.55,41.0868518787,10.33,18.54,191.43,76,89,141,-999,http://www.fnet.bosai.go.jp/event/search.php?LANG=en,,-41.45
20110412140700,BO,FKS003,37.76,140.48,37.05,140.64,C,80.04,81.43,79.95,80.44,-79.95,8.8,15,349.65,169.56,41.19,2.22,0.05,6.4,3,fw,-90,41.0868518787,10.33,18.54,191.43,76,89,141,-999,http://www.fnet.bosai.go.jp/event/search.php?LANG=en,,-90
20110412140700,BO,IBR013,36.16,140.49,37.05,140.64,C,35.45,38.49,32.38,33.56,-22,8.8,15,187.95,7.86,237.26,8.44,0.04,6.4,3,fw,-137.21,41.0868518787,10.33,18.54,191.43,76,89,141,-999,http://www.fnet.bosai.go.jp/event/search.php?LANG=en,,-42.79
20110412140700,BO,FKS008,37.44,140.57,37.05,140.64,C,43.18,45.71,42.96,43.85,-42.96,8.8,15,351.02,170.97,126.32,4.55,0.04,6.4,3,fw,-90,41.0868518787,10.33,18.54,191.43,76,89,141,-999,http://www.fnet.bosai.go.jp/event/search.php?LANG=en,,-90
20110412140700,BO,FKS009,37.28,140.63,37.05,140.64,C,25.07,29.22,24.23,25.78,-24.23,8.8,15,358.36,178.35,141.69,6.05,0.04,6.4,3,fw,-90,41.0868518787,10.33,18.54,191.43,76,89,141,-999,http://www.fnet.bosai.go.jp/event/search.php?LANG=en,,-90
20110412140700,BO,FKS020,37.55,140.11,37.05,140.64,D,72.63,74.16,69.38,69.94,-53.47,8.8,15,319.37,139.04,38.63,3.77,0.1,6.4,3,fw,-129.59,41.0868518787,10.33,18.54,191.43,76,89,141,-999,http://www.fnet.bosai.go.jp/event/search.php?LANG=en,,-50.41
20110412140700,BO,FKS021,37.65,139.86,37.05,140.64,B,96.07,97.23,91.87,92.29,-67.36,8.8,15,314.25,133.78,14.92,0.88,0.06,6.4,3,fw,-132.84,41.0868518787,10.33,18.54,191.43,76,89,141,-999,http://www.fnet.bosai.go.jp/event/search.php?LANG=en,,-47.16
20110412140700,BO,FKS004,37.68,140.73,37.05,140.64,C,70.16,71.74,66.93,67.51,-65.2,8.8,15,6.61,186.67,106.94,3.47,0.03,6.4,3,fw,-76.91,41.0868518787,10.33,18.54,191.43,76,89,141,-999,http://www.fnet.bosai.go.jp/event/search.php?LANG=en,,-76.91
20110412140700,BO,FKS023,37.48,139.93,37.05,140.64,C,78.97,80.38,73.74,74.26,-47.51,8.8,15,306.93,126.5,61.2,4.64,0.08,6.4,3,fw,-139.89,41.0868518787,10.33,18.54,191.43,76,89,141,-999,http://www.fnet.bosai.go.jp/event/search.php?LANG=en,,-40.11
20110412140700,BO,FKS002,37.84,140.6,37.05,140.64,B,88.08,89.35,86.2,86.65,-86.05,8.8,15,357.61,177.59,63.71,2.09,0.03,6.4,3,fw,-86.55,41.0868518787,10.33,18.54,191.43,76,89,141,-999,http://www.fnet.bosai.go.jp/event/search.php?LANG=en,,-86.55
20110412140700,BO,FKS025,37.31,139.9,37.05,140.64,B,71.82,73.37,64.82,65.42,-31.64,8.8,15,293.5,113.05,22.97,0.81,0.04,6.4,3,fw,-150.78,41.0868518787,10.33,18.54,191.43,76,89,141,-999,http://www.fnet.bosai.go.jp/event/search.php?LANG=en,,-29.22
20110412140700,BO,IBR019,36.88,140.65,37.05,140.64,,90.26,91.49,80.73,81.22,8.53,8.8,15,176.94,356.95,687.08,25.03,0.04,6.4,3,hw,173.94,41.0868518787,10.33,18.54,191.43,76,89,141,-999,http://www.fnet.bosai.go.jp/event/search.php?LANG=en,,6.06
20180906030800,BO,HKD145,42.8,140.94,42.7,142,C,87.75,96.44,73.93,84.6,57.44,32.55,40,277.46,96.74,66.48,3.76,0.06,6.7,3,hw,132.64,41.9471893442,13.71,27.48,376.7,349,65,107,-999,http://www.fnet.bosai.go.jp/event/search.php?LANG=en,,47.36
