EQID,Network,Station,STLA,STLO,EVLA,EVLO,Vs30,Rep,Rhyp,Rjb,Rrup,Rx,Ztor,Depth,Azimuth,BackAzimuth,PGA,PGV,PGV/PGA,Mw,FaultType,FWHW,Source2SiteAzimuth,StressDrop,RuptureWidth,RuptureLength,RuptureArea,Strike,Dip,Rake,Tp,EQInfo,FTInfo,S2SAZ
20160414212600,BO,KGS002,32.09,130.35,32.74,130.81,B,83.93,84.64,78.56,78.72,4.23,3.32,11,210.87,30.62,19,3.02,0.16,6.5,0,hw,3.08,62.6030920932,13,14,182,212,80,180.5,-999,http://equake-rc.info/SRCMOD/searchmodels/viewmodel/s2016KUMAMO01ASAN/,"Asano, K. and T. Iwata. 2016. Source rupture processes of the foreshock and mainshock in the 2016 Kumamoto earthquake sequence estimated from the kinematic waveform inversion of strong motion data. Earth Planets Space 68:147, doi:10.1186/s40623-016-0519-9.",3.08
20160414212600,BO,FKO008,33.57,130.85,32.74,130.81,B,92.14,92.79,85.1,86.22,46.2,3.32,11,2.65,182.68,36.94,2.39,0.06,6.5,0,hw,147.63,62.6030920932,13,14,182,212,80,180.5,-999,http://equake-rc.info/SRCMOD/searchmodels/viewmodel/s2016KUMAMO01ASAN/,"Asano, K. and T. Iwata. 2016. Source rupture processes of the foreshock and mainshock in the 2016 Kumamoto earthquake sequence estimated from the kinematic waveform inversion of strong motion data. Earth Planets Space 68:147, doi:10.1186/s40623-016-0519-9.",32.37
20160414212600,BO,KMM018,32.39,130.39,32.74,130.81,B,55.16,56.24,49.82,50.66,17.27,3.32,11,225.72,45.49,35.19,1.46,0.04,6.5,0,hw,19.98,62.6030920932,13,14,182,212,80,180.5,-999,http://equake-rc.info/SRCMOD/searchmodels/viewmodel/s2016KUMAMO01ASAN/,"Asano, K. and T. Iwata. 2016. Source rupture processes of the foreshock and mainshock in the 2016 Kumamoto earthquake sequence estimated from the kinematic waveform inversion of strong motion data. Earth Planets Space 68:147, doi:10.1186/s40623-016-0519-9.",19.98
20160414212600,BO,KMM019,32.45,130.18,32.74,130.81,B,66.99,67.89,62.15,63.45,37.09,3.32,11,241.76,61.43,19.65,0.97,0.05,6.5,0,hw,35.77,62.6030920932,13,14,182,212,80,180.5,-999,http://equake-rc.info/SRCMOD/searchmodels/viewmodel/s2016KUMAMO01ASAN/,"Asano, K. and T. Iwata. 2016. Source rupture processes of the foreshock and mainshock in the 2016 Kumamoto earthquake sequence estimated from the kinematic waveform inversion of strong motion data. Earth Planets Space 68:147, doi:10.1186/s40623-016-0519-9.",35.77
20160414212600,BO,FKO009,33.5,130.52,32.74,130.81,C,87.91,88.6,82.9,84.37,72.25,3.32,11,342.03,161.87,26.46,1.64,0.06,6.5,0,hw,121.59,62.6030920932,13,14,182,212,80,180.5,-999,http://equake-rc.info/SRCMOD/searchmodels/viewmodel/s2016KUMAMO01ASAN/,"Asano, K. and T. Iwata. 2016. Source rupture processes of the foreshock and mainshock in the 2016 Kumamoto earthquake sequence estimated from the kinematic waveform inversion of strong motion data. Earth Planets Space 68:147, doi:10.1186/s40623-016-0519-9.",58.41
20160414212600,BO,MYZ011,32,131.26,32.74,130.81,B,92.87,93.52,90.21,90.27,-82.49,3.32,11,152.92,333.16,18.22,1.31,0.07,6.5,0,fw,-66.12,62.6030920932,13,14,182,212,80,180.5,-999,http://equake-rc.info/SRCMOD/searchmodels/viewmodel/s2016KUMAMO01ASAN/,"Asano, K. and T. Iwata. 2016. Source rupture processes of the foreshock and mainshock in the 2016 Kumamoto earthquake sequence estimated from the kinematic waveform inversion of strong motion data. Earth Planets Space 68:147, doi:10.1186/s40623-016-0519-9.",-66.12
20160414212600,BO,MYZ010,32,130.97,32.74,130.81,C,84.02,84.74,80.19,80.26,-59.03,3.32,11,169.37,349.46,30.56,2.25,0.07,6.5,0,fw,-47.4,62.6030920932,13,14,182,212,80,180.5,-999,http://equake-rc.info/SRCMOD/searchmodels/viewmodel/s2016KUMAMO01ASAN/,"Asano, K. and T. Iwata. 2016. Source rupture processes of the foreshock and mainshock in the 2016 Kumamoto earthquake sequence estimated from the kinematic waveform inversion of strong motion data. Earth Planets Space 68:147, doi:10.1186/s40623-016-0519-9.",-47.4
20160414212600,BO,MYZ012,31.87,131.07,32.74,130.81,B,99.47,100.07,95.9,95.96,-74.86,3.32,11,165.66,345.8,32.85,2.33,0.07,6.5,0,fw,-51.32,62.6030920932,13,14,182,212,80,180.5,-999,http://equake-rc.info/SRCMOD/searchmodels/viewmodel/s2016KUMAMO01ASAN/,"Asano, K. and T. Iwata. 2016. Source rupture processes of the foreshock and mainshock in the 2016 Kumamoto earthquake sequence estimated from the kinematic waveform inversion of strong motion data. Earth Planets Space 68:147, doi:10.1186/s40623-016-0519-9.",-51.32
20160414212600,BO,FKO011,33.32,130.51,32.74,130.81,C,70.24,71.1,65.9,67.62,62,3.32,11,336.84,156.68,64.9,4.5,0.07,6.5,0,hw,114.17,62.6030920932,13,14,182,212,80,180.5,-999,http://equake-rc.info/SRCMOD/searchmodels/viewmodel/s2016KUMAMO01ASAN/,"Asano, K. and T. Iwata. 2016. Source rupture processes of the foreshock and mainshock in the 2016 Kumamoto earthquake sequence estimated from the kinematic waveform inversion of strong motion data. Earth Planets Space 68:147, doi:10.1186/s40623-016-0519-9.",65.83
20160414212600,BO,FKO010,33.42,130.67,32.74,130.81,B,76.73,77.52,70.83,72.32,54.8,3.32,11,350.29,170.21,42.54,1.4,0.03,6.5,0,hw,130.92,62.6030920932,13,14,182,212,80,180.5,-999,http://equake-rc.info/SRCMOD/searchmodels/viewmodel/s2016KUMAMO01ASAN/,"Asano, K. and T. Iwata. 2016. Source rupture processes of the foreshock and mainshock in the 2016 Kumamoto earthquake sequence estimated from the kinematic waveform inversion of strong motion data. Earth Planets Space 68:147, doi:10.1186/s40623-016-0519-9.",49.08
20160414212600,BO,FKO013,33.23,130.56,32.74,130.81,C,58.42,59.45,54.15,56.03,51.9,3.32,11,336.73,156.6,67.86,3.4,0.05,6.5,0,hw,112.63,62.6030920932,13,14,182,212,80,180.5,-999,http://equake-rc.info/SRCMOD/searchmodels/viewmodel/s2016KUMAMO01ASAN/,"Asano, K. and T. Iwata. 2016. Source rupture processes of the foreshock and mainshock in the 2016 Kumamoto earthquake sequence estimated from the kinematic waveform inversion of strong motion data. Earth Planets Space 68:147, doi:10.1186/s40623-016-0519-9.",67.37
20160414212600,BO,FKO012,33.33,130.79,32.74,130.81,C,65.47,66.39,58.74,60.13,37.87,3.32,11,358.85,178.84,20.42,1.9,0.09,6.5,0,hw,140.97,62.6030920932,13,14,182,212,80,180.5,-999,http://equake-rc.info/SRCMOD/searchmodels/viewmodel/s2016KUMAMO01ASAN/,"Asano, K. and T. Iwata. 2016. Source rupture processes of the foreshock and mainshock in the 2016 Kumamoto earthquake sequence estimated from the kinematic waveform inversion of strong motion data. Earth Planets Space 68:147, doi:10.1186/s40623-016-0519-9.",39.03
20160414212600,BO,MYZ019,32.5,131.44,32.74,130.81,B,65.38,66.3,64.44,64.52,-62.13,3.32,11,113.97,294.31,15.62,1.63,0.1,6.5,0,fw,-105.39,62.6030920932,13,14,182,212,80,180.5,-999,http://equake-rc.info/SRCMOD/searchmodels/viewmodel/s2016KUMAMO01ASAN/,"Asano, K. and T. Iwata. 2016. Source rupture processes of the foreshock and mainshock in the 2016 Kumamoto earthquake sequence estimated from the kinematic waveform inversion of strong motion data. Earth Planets Space 68:147, doi:10.1186/s40623-016-0519-9.",-105.39
20160414212600,BO,FKO014,33.15,130.82,32.74,130.81,B,45.19,46.51,38.29,39.79,24.82,3.32,11,1.21,181.21,31.52,2.34,0.07,6.5,0,hw,141.25,62.6030920932,13,14,182,212,80,180.5,-999,http://equake-rc.info/SRCMOD/searchmodels/viewmodel/s2016KUMAMO01ASAN/,"Asano, K. and T. Iwata. 2016. Source rupture processes of the foreshock and mainshock in the 2016 Kumamoto earthquake sequence estimated from the kinematic waveform inversion of strong motion data. Earth Planets Space 68:147, doi:10.1186/s40623-016-0519-9.",38.75
20160414212600,BO,FKO016,33.02,130.45,32.74,130.81,C,45.5,46.81,45.43,47.54,47.69,3.32,11,312.07,131.87,54.38,3.08,0.06,6.5,0,hw,90,62.6030920932,13,14,182,212,80,180.5,-999,http://equake-rc.info/SRCMOD/searchmodels/viewmodel/s2016KUMAMO01ASAN/,"Asano, K. and T. Iwata. 2016. Source rupture processes of the foreshock and mainshock in the 2016 Kumamoto earthquake sequence estimated from the kinematic waveform inversion of strong motion data. Earth Planets Space 68:147, doi:10.1186/s40623-016-0519-9.",90
20160414212600,BO,NGS019,32.9,129.96,32.74,130.81,C,81.56,82.3,79.65,81.22,77.69,3.32,11,282.66,102.2,39.15,3.02,0.08,6.5,0,hw,71.77,62.6030920932,13,14,182,212,80,180.5,-999,http://equake-rc.info/SRCMOD/searchmodels/viewmodel/s2016KUMAMO01ASAN/,"Asano, K. and T. Iwata. 2016. Source rupture processes of the foreshock and mainshock in the 2016 Kumamoto earthquake sequence estimated from the kinematic waveform inversion of strong motion data. Earth Planets Space 68:147, doi:10.1186/s40623-016-0519-9.",71.77
20160414212600,BO,KMM005,32.88,130.88,32.74,130.81,B,16.23,19.61,8,9.01,2.5,3.32,11,23.59,203.63,187.74,16.73,0.09,6.5,0,hw,162.64,62.6030920932,13,14,182,212,80,180.5,-999,http://equake-rc.info/SRCMOD/searchmodels/viewmodel/s2016KUMAMO01ASAN/,"Asano, K. and T. Iwata. 2016. Source rupture processes of the foreshock and mainshock in the 2016 Kumamoto earthquake sequence estimated from the kinematic waveform inversion of strong motion data. Earth Planets Space 68:147, doi:10.1186/s40623-016-0519-9.",17.36
20160414212600,BO,NGS011,32.78,130.2,32.74,130.81,B,57.01,58.06,54.5,56.37,51.82,3.32,11,274.84,94.52,19.53,2.99,0.15,6.5,0,hw,66.36,62.6030920932,13,14,182,212,80,180.5,-999,http://equake-rc.info/SRCMOD/searchmodels/viewmodel/s2016KUMAMO01ASAN/,"Asano, K. and T. Iwata. 2016. Source rupture processes of the foreshock and mainshock in the 2016 Kumamoto earthquake sequence estimated from the kinematic waveform inversion of strong motion data. Earth Planets Space 68:147, doi:10.1186/s40623-016-0519-9.",66.36
20160414212600,BO,NGS010,32.74,129.88,32.74,130.81,C,87.4,88.08,84.31,85.78,74.93,3.32,11,269.76,89.26,42.38,1.1,0.03,6.5,0,hw,60.29,62.6030920932,13,14,182,212,80,180.5,-999,http://equake-rc.info/SRCMOD/searchmodels/viewmodel/s2016KUMAMO01ASAN/,"Asano, K. and T. Iwata. 2016. Source rupture processes of the foreshock and mainshock in the 2016 Kumamoto earthquake sequence estimated from the kinematic waveform inversion of strong motion data. Earth Planets Space 68:147, doi:10.1186/s40623-016-0519-9.",60.29
20160414212600,BO,NGS013,32.58,129.76,32.74,130.81,B,100.01,100.62,96.14,97.44,76.5,3.32,11,260,79.44,6.42,0.6,0.09,6.5,0,hw,51.39,62.6030920932,13,14,182,212,80,180.5,-999,http://equake-rc.info/SRCMOD/searchmodels/viewmodel/s2016KUMAMO01ASAN/,"Asano, K. and T. Iwata. 2016. Source rupture processes of the foreshock and mainshock in the 2016 Kumamoto earthquake sequence estimated from the kinematic waveform inversion of strong motion data. Earth Planets Space 68:147, doi:10.1186/s40623-016-0519-9.",51.39
20160414212600,BO,NGS012,32.79,130.35,32.74,130.81,C,43.64,45,41.42,43.48,40.81,3.32,11,276.91,96.66,35.92,4.51,0.13,6.5,0,hw,69.66,62.6030920932,13,14,182,212,80,180.5,-999,http://equake-rc.info/SRCMOD/searchmodels/viewmodel/s2016KUMAMO01ASAN/,"Asano, K. and T. Iwata. 2016. Source rupture processes of the foreshock and mainshock in the 2016 Kumamoto earthquake sequence estimated from the kinematic waveform inversion of strong motion data. Earth Planets Space 68:147, doi:10.1186/s40623-016-0519-9.",69.66
20160414212600,BO,NGS014,32.61,130.18,32.74,130.81,D,60.29,61.28,56.28,57.91,44.1,3.32,11,256.17,75.83,54.21,3.75,0.07,6.5,0,hw,49.51,62.6030920932,13,14,182,212,80,180.5,-999,http://equake-rc.info/SRCMOD/searchmodels/viewmodel/s2016KUMAMO01ASAN/,"Asano, K. and T. Iwata. 2016. Source rupture processes of the foreshock and mainshock in the 2016 Kumamoto earthquake sequence estimated from the kinematic waveform inversion of strong motion data. Earth Planets Space 68:147, doi:10.1186/s40623-016-0519-9.",49.51
20160414212600,BO,FKO015,33.16,130.41,32.74,130.81,D,60.03,61.03,57.84,59.75,59.73,3.32,11,321.2,140.98,90.86,6.75,0.07,6.5,0,hw,96.24,62.6030920932,13,14,182,212,80,180.5,-999,http://equake-rc.info/SRCMOD/searchmodels/viewmodel/s2016KUMAMO01ASAN/,"Asano, K. and T. Iwata. 2016. Source rupture processes of the foreshock and mainshock in the 2016 Kumamoto earthquake sequence estimated from the kinematic waveform inversion of strong motion data. Earth Planets Space 68:147, doi:10.1186/s40623-016-0519-9.",83.76
20160414212600,BO,SAG006,33.19,130.03,32.74,130.81,C,87.95,88.63,88.23,89.69,90.49,3.32,11,304.78,124.36,10.46,1.42,0.14,6.5,0,hw,90,62.6030920932,13,14,182,212,80,180.5,-999,http://equake-rc.info/SRCMOD/searchmodels/viewmodel/s2016KUMAMO01ASAN/,"Asano, K. and T. Iwata. 2016. Source rupture processes of the foreshock and mainshock in the 2016 Kumamoto earthquake sequence estimated from the kinematic waveform inversion of strong motion data. Earth Planets Space 68:147, doi:10.1186/s40623-016-0519-9.",90
20160414212600,BO,OIT015,32.97,131.4,32.74,130.81,C,60.71,61.7,53.57,53.67,-30.09,3.32,11,64.99,245.31,15.19,1.17,0.08,6.5,0,fw,-145.82,62.6030920932,13,14,182,212,80,180.5,-999,http://equake-rc.info/SRCMOD/searchmodels/viewmodel/s2016KUMAMO01ASAN/,"Asano, K. and T. Iwata. 2016. Source rupture processes of the foreshock and mainshock in the 2016 Kumamoto earthquake sequence estimated from the kinematic waveform inversion of strong motion data. Earth Planets Space 68:147, doi:10.1186/s40623-016-0519-9.",-145.82
20160414212600,BO,KMM001,33.12,131.07,32.74,130.81,B,48.57,49.8,40.18,40.32,-1.77,3.32,11,30.06,210.2,37.32,3.11,0.08,6.5,0,fw,-177.47,62.6030920932,13,14,182,212,80,180.5,-999,http://equake-rc.info/SRCMOD/searchmodels/viewmodel/s2016KUMAMO01ASAN/,"Asano, K. and T. Iwata. 2016. Source rupture processes of the foreshock and mainshock in the 2016 Kumamoto earthquake sequence estimated from the kinematic waveform inversion of strong motion data. Earth Planets Space 68:147, doi:10.1186/s40623-016-0519-9.",-177.47
20160414212600,BO,OIT017,32.86,131.66,32.74,130.81,A,80.65,81.4,74.96,75.03,-55.52,3.32,11,80.62,261.07,9.08,0.74,0.08,6.5,0,fw,-132.22,62.6030920932,13,14,182,212,80,180.5,-999,http://equake-rc.info/SRCMOD/searchmodels/viewmodel/s2016KUMAMO01ASAN/,"Asano, K. and T. Iwata. 2016. Source rupture processes of the foreshock and mainshock in the 2016 Kumamoto earthquake sequence estimated from the kinematic waveform inversion of strong motion data. Earth Planets Space 68:147, doi:10.1186/s40623-016-0519-9.",-132.22
20160414212600,BO,OIT010,33.23,131.59,32.74,130.81,C,91.28,91.94,83.3,83.37,-34.98,3.32,11,53.29,233.72,16.1,2.16,0.13,6.5,0,fw,-155.17,62.6030920932,13,14,182,212,80,180.5,-999,http://equake-rc.info/SRCMOD/searchmodels/viewmodel/s2016KUMAMO01ASAN/,"Asano, K. and T. Iwata. 2016. Source rupture processes of the foreshock and mainshock in the 2016 Kumamoto earthquake sequence estimated from the kinematic waveform inversion of strong motion data. Earth Planets Space 68:147, doi:10.1186/s40623-016-0519-9.",-155.17
20160414212600,BO,OIT013,33.07,131.59,32.74,130.81,A,82.07,82.8,74.72,74.79,-41.11,3.32,11,63.27,243.69,6.42,0.47,0.07,6.5,0,fw,-146.62,62.6030920932,13,14,182,212,80,180.5,-999,http://equake-rc.info/SRCMOD/searchmodels/viewmodel/s2016KUMAMO01ASAN/,"Asano, K. and T. Iwata. 2016. Source rupture processes of the foreshock and mainshock in the 2016 Kumamoto earthquake sequence estimated from the kinematic waveform inversion of strong motion data. Earth Planets Space 68:147, doi:10.1186/s40623-016-0519-9.",-146.62
20160414212600,BO,OIT012,33.07,131.37,32.74,130.81,B,63.94,64.87,56.12,56.21,-24.87,3.32,11,55.63,235.93,7.81,0.99,0.13,6.5,0,fw,-153.69,62.6030920932,13,14,182,212,80,180.5,-999,http://equake-rc.info/SRCMOD/searchmodels/viewmodel/s2016KUMAMO01ASAN/,"Asano, K. and T. Iwata. 2016. Source rupture processes of the foreshock and mainshock in the 2016 Kumamoto earthquake sequence estimated from the kinematic waveform inversion of strong motion data. Earth Planets Space 68:147, doi:10.1186/s40623-016-0519-9.",-153.69
20160414212600,BO,SAG003,33.37,130.21,32.74,130.81,C,89.75,90.43,87.36,88.83,88.47,3.32,11,321.45,141.12,29.76,1.22,0.04,6.5,0,hw,99.07,62.6030920932,13,14,182,212,80,180.5,-999,http://equake-rc.info/SRCMOD/searchmodels/viewmodel/s2016KUMAMO01ASAN/,"Asano, K. and T. Iwata. 2016. Source rupture processes of the foreshock and mainshock in the 2016 Kumamoto earthquake sequence estimated from the kinematic waveform inversion of strong motion data. Earth Planets Space 68:147, doi:10.1186/s40623-016-0519-9.",80.93
20160414212600,BO,KMM004,32.93,131.12,32.74,130.81,C,36.09,37.73,28.28,28.48,-11.42,3.32,11,54.23,234.4,34.56,3.1,0.09,6.5,0,fw,-156.18,62.6030920932,13,14,182,212,80,180.5,-999,http://equake-rc.info/SRCMOD/searchmodels/viewmodel/s2016KUMAMO01ASAN/,"Asano, K. and T. Iwata. 2016. Source rupture processes of the foreshock and mainshock in the 2016 Kumamoto earthquake sequence estimated from the kinematic waveform inversion of strong motion data. Earth Planets Space 68:147, doi:10.1186/s40623-016-0519-9.",-156.18
20160414212600,BO,KMM007,32.83,131.12,32.74,130.81,C,30.88,32.78,24.76,24.98,-15.13,3.32,11,72.24,252.41,190.95,7.69,0.04,6.5,0,fw,-142.34,62.6030920932,13,14,182,212,80,180.5,-999,http://equake-rc.info/SRCMOD/searchmodels/viewmodel/s2016KUMAMO01ASAN/,"Asano, K. and T. Iwata. 2016. Source rupture processes of the foreshock and mainshock in the 2016 Kumamoto earthquake sequence estimated from the kinematic waveform inversion of strong motion data. Earth Planets Space 68:147, doi:10.1186/s40623-016-0519-9.",-142.34
20160414212600,BO,KMM006,32.79,130.78,32.74,130.81,C,6.45,12.75,5.59,8.52,7.84,3.32,11,333.16,153.15,523.95,69.64,0.13,6.5,0,hw,90,62.6030920932,13,14,182,212,80,180.5,1.44199996777,http://equake-rc.info/SRCMOD/searchmodels/viewmodel/s2016KUMAMO01ASAN/,"Asano, K. and T. Iwata. 2016. Source rupture processes of the foreshock and mainshock in the 2016 Kumamoto earthquake sequence estimated from the kinematic waveform inversion of strong motion data. Earth Planets Space 68:147, doi:10.1186/s40623-016-0519-9.",90
20160414212600,BO,SAG007,33.26,130.3,32.74,130.81,D,74.8,75.6,72.57,74.26,74.2,3.32,11,320.74,140.46,44.78,4.59,0.1,6.5,0,hw,97.32,62.6030920932,13,14,182,212,80,180.5,-999,http://equake-rc.info/SRCMOD/searchmodels/viewmodel/s2016KUMAMO01ASAN/,"Asano, K. and T. Iwata. 2016. Source rupture processes of the foreshock and mainshock in the 2016 Kumamoto earthquake sequence estimated from the kinematic waveform inversion of strong motion data. Earth Planets Space 68:147, doi:10.1186/s40623-016-0519-9.",82.68
20160414212600,BO,KMM003,32.93,130.55,32.74,130.81,C,32.4,34.22,32.42,34.72,34.67,3.32,11,311.16,131.02,79.4,6.95,0.09,6.5,0,hw,90,62.6030920932,13,14,182,212,80,180.5,-999,http://equake-rc.info/SRCMOD/searchmodels/viewmodel/s2016KUMAMO01ASAN/,"Asano, K. and T. Iwata. 2016. Source rupture processes of the foreshock and mainshock in the 2016 Kumamoto earthquake sequence estimated from the kinematic waveform inversion of strong motion data. Earth Planets Space 68:147, doi:10.1186/s40623-016-0519-9.",90
20160414212600,BO,SAG005,33.32,130.06,32.74,130.81,B,94.7,95.34,94.41,95.78,96.65,3.32,11,312.96,132.56,16.42,0.8,0.05,6.5,0,hw,91,62.6030920932,13,14,182,212,80,180.5,-999,http://equake-rc.info/SRCMOD/searchmodels/viewmodel/s2016KUMAMO01ASAN/,"Asano, K. and T. Iwata. 2016. Source rupture processes of the foreshock and mainshock in the 2016 Kumamoto earthquake sequence estimated from the kinematic waveform inversion of strong motion data. Earth Planets Space 68:147, doi:10.1186/s40623-016-0519-9.",89
20160414212600,BO,KMM002,33.02,130.68,32.74,130.81,C,32.82,34.62,28.55,30.81,29.05,3.32,11,339.4,159.33,150.47,6.41,0.04,6.5,0,hw,108.75,62.6030920932,13,14,182,212,80,180.5,-999,http://equake-rc.info/SRCMOD/searchmodels/viewmodel/s2016KUMAMO01ASAN/,"Asano, K. and T. Iwata. 2016. Source rupture processes of the foreshock and mainshock in the 2016 Kumamoto earthquake sequence estimated from the kinematic waveform inversion of strong motion data. Earth Planets Space 68:147, doi:10.1186/s40623-016-0519-9.",71.25
