EQID,Network,Station,STLA,STLO,EVLA,EVLO,Vs30,Rep,Rhyp,Rjb,Rrup,Rx,Ztor,Depth,Azimuth,BackAzimuth,PGA,PGV,PGV/PGA,Mw,FaultType,FWHW,Source2SiteAzimuth,StressDrop,RuptureWidth,RuptureLength,RuptureArea,Strike,Dip,Rake,Tp,EQInfo,FTInfo,S2SAZ
2011-2-21,GEONET,OXZ,-43.19,172.02,-43.34,172.4,B,35.06,37.06,28.87,32.53,30.41,7.47,12,118.25,298.51,54.92,4.16,0.08,6.2,3,hw,111,40.5231191371,8.55,14.26,121.9,168,62,36,-999,https://earthquake.usgs.gov/earthquakes/eventpage/usp000huvq/moment-tensor,,69
2011-2-21,GEONET,LTZ,-42.46,172.16,-43.34,172.4,B,99.71,100.43,90.22,90.78,7.66,7.47,12,168.58,348.74,24.23,2.3,0.09,6.2,3,hw,175.14,40.5231191371,8.55,14.26,121.9,168,62,36,-999,https://earthquake.usgs.gov/earthquakes/eventpage/usp000huvq/moment-tensor,,4.86000000000001
2011-2-21,GEONET,SWNC,-43.22,172.29,-43.34,172.4,D,16.05,20.04,7.3,12.99,9.44,7.47,12,146.15,326.23,188.55,13.28,0.07,6.2,3,hw,117.38,40.5231191371,8.55,14.26,121.9,168,62,36,-999,https://earthquake.usgs.gov/earthquakes/eventpage/usp000huvq/moment-tensor,,62.62
2011-2-21,GEONET,MAYC,-43.49,171.25,-43.34,172.4,D,94.62,95.37,93.68,94.87,97.69,7.47,12,79.46,260.25,20.95,1.72,0.08,6.2,3,hw,90.21,40.5231191371,8.55,14.26,121.9,168,62,36,-999,https://earthquake.usgs.gov/earthquakes/eventpage/usp000huvq/moment-tensor,,89.79
2011-2-21,GEONET,D07C,-43.31,172.4,-43.34,172.4,E,3.33,12.45,0,7.74,2.01,7.47,12,180,0,656.67,55.46,0.08,6.2,3,hw,90,40.5231191371,8.55,14.26,121.9,168,62,36,-999,https://earthquake.usgs.gov/earthquakes/eventpage/usp000huvq/moment-tensor,,90
2011-2-21,GEONET,CCCC,-43.32,172.38,-43.34,172.4,D,2.75,12.31,0,7.74,2.01,7.47,12,143.88,323.89,473.9,71.32,0.15,6.2,3,hw,90,40.5231191371,8.55,14.26,121.9,168,62,36,-999,https://earthquake.usgs.gov/earthquakes/eventpage/usp000huvq/moment-tensor,,90
2011-2-21,GEONET,SHFC,-43.23,172.01,-43.34,172.4,D,33.93,35.99,28.84,32.51,31.59,7.47,12,110.98,291.24,46.9,5.31,0.11,6.2,3,hw,104.95,40.5231191371,8.55,14.26,121.9,168,62,36,-999,https://earthquake.usgs.gov/earthquakes/eventpage/usp000huvq/moment-tensor,,75.05
2011-2-21,GEONET,WAKC,-42.57,172.42,-43.34,172.4,D,85.56,86.39,75.64,76.01,-14.34,7.47,12,181.1,1.09,81.83,4.78,0.06,6.2,3,fw,-169.08,40.5231191371,8.55,14.26,121.9,168,62,36,-999,https://earthquake.usgs.gov/earthquakes/eventpage/usp000huvq/moment-tensor,,-10.92
2011-2-21,GEONET,KPOC,-43.22,172.39,-43.34,172.4,D,13.36,17.96,3.46,8.24,0.32,7.47,12,176.51,356.52,186.07,20.09,0.11,6.2,3,hw,174.66,40.5231191371,8.55,14.26,121.9,168,62,36,-999,https://earthquake.usgs.gov/earthquakes/eventpage/usp000huvq/moment-tensor,,5.34
2011-2-21,GEONET,ADCS,-43.54,171.44,-43.34,172.4,D,80.83,81.72,79.21,80.62,83.22,7.47,12,73.72,254.37,69.22,4.19,0.06,6.2,3,hw,90,40.5231191371,8.55,14.26,121.9,168,62,36,-999,https://earthquake.usgs.gov/earthquakes/eventpage/usp000huvq/moment-tensor,,90
2011-2-21,GEONET,DORC,-43.53,172.05,-43.34,172.4,D,35.33,37.32,30.4,33.91,34.34,7.47,12,53.2,233.44,45.41,3.03,0.07,6.2,3,hw,86.42,40.5231191371,8.55,14.26,121.9,168,62,36,-999,https://earthquake.usgs.gov/earthquakes/eventpage/usp000huvq/moment-tensor,,86.42
2011-2-21,GEONET,CMHS,-43.34,172.37,-43.34,172.4,D,2.43,12.24,0.93,8.96,4.95,7.47,12,89.99,270.01,388.95,45.93,0.12,6.2,3,hw,90,40.5231191371,8.55,14.26,121.9,168,62,36,2.04399995431,https://earthquake.usgs.gov/earthquakes/eventpage/usp000huvq/moment-tensor,,90
2011-2-21,GEONET,SMTC,-43.28,172.36,-43.34,172.4,D,7.41,14.11,0.71,8.84,4.72,7.47,12,154.03,334.06,176.81,28.63,0.16,6.2,3,hw,90,40.5231191371,8.55,14.26,121.9,168,62,36,-999,https://earthquake.usgs.gov/earthquakes/eventpage/usp000huvq/moment-tensor,,90
2011-2-21,GEONET,D09C,-43.32,172.37,-43.34,172.4,,3.29,12.44,0.59,8.77,4.6,7.47,12,132.39,312.42,288.98,65.4,0.23,6.2,3,hw,90,40.5231191371,8.55,14.26,121.9,168,62,36,-999,https://earthquake.usgs.gov/earthquakes/eventpage/usp000huvq/moment-tensor,,90
2011-2-21,GEONET,KOWC,-43.19,171.51,-43.34,172.4,D,74.16,75.12,69.6,71.2,70.66,7.47,12,102.68,283.29,86.53,7.41,0.09,6.2,3,hw,105.87,40.5231191371,8.55,14.26,121.9,168,62,36,-999,https://earthquake.usgs.gov/earthquakes/eventpage/usp000huvq/moment-tensor,,74.13
2011-2-21,GEONET,RKAC,-43.45,172.01,-43.34,172.4,D,33.88,35.94,31.8,35.17,35.82,7.47,12,68.72,248.99,27.73,2.14,0.08,6.2,3,hw,90,40.5231191371,8.55,14.26,121.9,168,62,36,-999,https://earthquake.usgs.gov/earthquakes/eventpage/usp000huvq/moment-tensor,,90
2011-2-21,GEONET,HPSC,-43.3,172.42,-43.34,172.4,E,4.73,12.9,0.81,7.51,-0.81,7.47,12,200.07,20.05,232.71,35.38,0.15,6.2,3,fw,-90,40.5231191371,8.55,14.26,121.9,168,62,36,-999,https://earthquake.usgs.gov/earthquakes/eventpage/usp000huvq/moment-tensor,,-90
2011-2-21,GEONET,DFHS,-43.29,172.06,-43.34,172.4,D,28.14,30.59,24.88,29.01,28.75,7.47,12,101.27,281.5,63.12,5.03,0.08,6.2,3,hw,95.29,40.5231191371,8.55,14.26,121.9,168,62,36,-999,https://earthquake.usgs.gov/earthquakes/eventpage/usp000huvq/moment-tensor,,84.71
2011-2-21,GEONET,PRPC,-43.31,172.4,-43.34,172.4,E,3.33,12.45,0,7.74,2.01,7.47,12,180,0,651.81,81.97,0.13,6.2,3,hw,90,40.5231191371,8.55,14.26,121.9,168,62,36,4.08799990863,https://earthquake.usgs.gov/earthquakes/eventpage/usp000huvq/moment-tensor,,90
2011-2-21,GEONET,ROLC,-43.35,172.22,-43.34,172.4,D,14.64,18.93,13.2,18.7,17.21,7.47,12,85.59,265.71,187.81,8.18,0.04,6.2,3,hw,90,40.5231191371,8.55,14.26,121.9,168,62,36,-999,https://earthquake.usgs.gov/earthquakes/eventpage/usp000huvq/moment-tensor,,90
2011-2-21,GEONET,DSLC,-43.4,172.11,-43.34,172.4,D,24.43,27.22,22.91,27.28,26.92,7.47,12,74.07,254.27,66.31,4.92,0.07,6.2,3,hw,90,40.5231191371,8.55,14.26,121.9,168,62,36,-999,https://earthquake.usgs.gov/earthquakes/eventpage/usp000huvq/moment-tensor,,90
2011-2-21,GEONET,CBGS,-43.31,172.37,-43.34,172.4,D,4.13,12.69,0.42,8.69,4.43,7.47,12,143.86,323.88,519.12,63.12,0.12,6.2,3,hw,90,40.5231191371,8.55,14.26,121.9,168,62,36,-999,https://earthquake.usgs.gov/earthquakes/eventpage/usp000huvq/moment-tensor,,90
2011-2-21,GEONET,CHHC,-43.32,172.37,-43.34,172.4,D,3.29,12.44,0.59,8.77,4.6,7.47,12,132.39,312.42,353.88,66.01,0.19,6.2,3,hw,90,40.5231191371,8.55,14.26,121.9,168,62,36,-999,https://earthquake.usgs.gov/earthquakes/eventpage/usp000huvq/moment-tensor,,90
2011-2-21,GEONET,503E,-43.32,172.38,-43.34,172.4,,2.75,12.31,0,7.74,2.01,7.47,12,143.88,323.89,366.39,86.77,0.24,6.2,3,hw,90,40.5231191371,8.55,14.26,121.9,168,62,36,-999,https://earthquake.usgs.gov/earthquakes/eventpage/usp000huvq/moment-tensor,,90
2011-2-21,GEONET,LPOC,-43.36,172.42,-43.34,172.4,D,2.75,12.31,0,7.74,2.01,7.47,12,323.88,143.87,305.57,75.49,0.25,6.2,3,hw,90,40.5231191371,8.55,14.26,121.9,168,62,36,2.99599993303,https://earthquake.usgs.gov/earthquakes/eventpage/usp000huvq/moment-tensor,,90
2011-2-21,GEONET,ASHS,-43.16,172.35,-43.34,172.4,D,20.41,23.67,10.82,13.55,3.25,7.47,12,168.51,348.54,86.99,6.8,0.08,6.2,3,hw,163.27,40.5231191371,8.55,14.26,121.9,168,62,36,-999,https://earthquake.usgs.gov/earthquakes/eventpage/usp000huvq/moment-tensor,,16.73
2016-11-14,GEONET,CECS,-42.48,173.16,-42.33,173.19,D,16.84,22.89,9.15,16.18,10.47,10.83,15.5,8.42,188.44,47,6.37,0.14,6.26,0,hw,60.67,32.0407642416,8.52,19.22,163.68,163,66,6,-999,https://earthquake.usgs.gov/earthquakes/eventpage/us100077hw/moment-tensor,,60.67
2016-11-14,GEONET,HSES,-42.31,172.49,-42.33,173.19,D,57.75,59.79,55.23,58.28,57.43,10.83,15.5,91.97,272.44,240.72,28.68,0.12,6.26,0,hw,101.54,32.0407642416,8.52,19.22,163.68,163,66,6,1.23199997246,https://earthquake.usgs.gov/earthquakes/eventpage/us100077hw/moment-tensor,,78.46
2016-11-14,GEONET,LTZ,-42.46,172.16,-42.33,173.19,B,86.03,87.41,85.18,87.19,88.31,10.83,15.5,79.99,260.68,12.14,1.3,0.11,6.26,0,hw,94.9,32.0407642416,8.52,19.22,163.68,163,66,6,-999,https://earthquake.usgs.gov/earthquakes/eventpage/us100077hw/moment-tensor,,85.1
2016-11-14,GEONET,SCAC,-42.56,172.55,-42.33,173.19,D,58.52,60.54,59.05,61.92,62.52,10.83,15.5,63.9,244.33,31.86,3.68,0.12,6.26,0,hw,90,32.0407642416,8.52,19.22,163.68,163,66,6,-999,https://earthquake.usgs.gov/earthquakes/eventpage/us100077hw/moment-tensor,,90
2016-11-14,GEONET,MOLS,-42.05,173.15,-42.33,173.19,C,31.28,34.91,21.84,24.37,-2,10.83,15.5,173.92,353.95,49.95,3.06,0.06,6.26,0,fw,-174.75,32.0407642416,8.52,19.22,163.68,163,66,6,-999,https://earthquake.usgs.gov/earthquakes/eventpage/us100077hw/moment-tensor,,-174.75
2016-11-14,GEONET,WIGC,-42.42,172.48,-42.33,173.19,D,59.33,61.32,58.78,61.66,62.18,10.83,15.5,80.06,260.54,119.41,12.33,0.1,6.26,0,hw,92.61,32.0407642416,8.52,19.22,163.68,163,66,6,-999,https://earthquake.usgs.gov/earthquakes/eventpage/us100077hw/moment-tensor,,87.39
2016-11-14,GEONET,WTMC,-42.37,173.03,-42.33,173.19,D,13.91,20.83,14.2,20.72,17.67,10.83,15.5,71.32,251.43,109.57,9.38,0.09,6.26,0,hw,90,32.0407642416,8.52,19.22,163.68,163,66,6,-999,https://earthquake.usgs.gov/earthquakes/eventpage/us100077hw/moment-tensor,,90
2016-11-14,GEONET,GVZ,-42.58,173.02,-42.33,173.19,B,31.09,34.74,25.03,30.2,26.08,10.83,15.5,26.67,206.78,26.35,1.85,0.07,6.26,0,hw,67.64,32.0407642416,8.52,19.22,163.68,163,66,6,-999,https://earthquake.usgs.gov/earthquakes/eventpage/us100077hw/moment-tensor,,67.64
2016-11-14,GEONET,WAKC,-42.57,172.42,-42.33,173.19,D,68.73,70.45,69.84,72.28,73.31,10.83,15.5,66.92,247.43,49.52,2.94,0.06,6.26,0,hw,90,32.0407642416,8.52,19.22,163.68,163,66,6,-999,https://earthquake.usgs.gov/earthquakes/eventpage/us100077hw/moment-tensor,,90
2016-11-14,GEONET,KIKS,-42.25,173.4,-42.33,173.19,B,19.47,24.88,19.44,22.26,-19.44,10.83,15.5,242.91,62.77,38.44,7.56,0.2,6.26,0,fw,-90,32.0407642416,8.52,19.22,163.68,163,66,6,-999,https://earthquake.usgs.gov/earthquakes/eventpage/us100077hw/moment-tensor,,-90
2016-11-14,GEONET,CULC,-42.45,172.48,-42.33,173.19,D,59.96,61.94,59.94,62.77,63.41,10.83,15.5,76.92,257.4,62.8,8.34,0.13,6.26,0,hw,90.25,32.0407642416,8.52,19.22,163.68,163,66,6,-999,https://earthquake.usgs.gov/earthquakes/eventpage/us100077hw/moment-tensor,,89.75
2016-11-14,GEONET,SJFS,-42.2,172.1,-42.33,173.19,C,91.08,92.39,87.1,89.07,85.17,10.83,15.5,98.76,279.49,19.5,1.64,0.08,6.26,0,hw,109.51,32.0407642416,8.52,19.22,163.68,163,66,6,-999,https://earthquake.usgs.gov/earthquakes/eventpage/us100077hw/moment-tensor,,70.49
20041214145600,BO,HKD023,43.77,141.37,44.08,141.7,C,42.74,43.68,35.03,36.8,34.18,5.59,9,218.5,38.28,12.59,0.7,0.06,6.1,2,hw,59.89,40.2441599471,7.78,12.5,97.27,178,47,73,-999,http://www.fnet.bosai.go.jp/event/search.php?LANG=en,,59.89
20041214145600,BO,HKD021,43.94,141.64,44.08,141.7,C,15.73,18.12,6.97,12.09,9.44,5.59,9,198.45,18.41,33.6,2.83,0.08,6.1,2,hw,59.29,40.2441599471,7.78,12.5,97.27,178,47,73,-999,http://www.fnet.bosai.go.jp/event/search.php?LANG=en,,59.29
20041214145600,BO,HKD020,44.15,141.66,44.08,141.7,B,8.64,12.48,0.66,8.18,5.97,5.59,9,341.2,161.17,1122.61,73.55,0.07,6.1,2,hw,90,40.2441599471,7.78,12.5,97.27,178,47,73,1.84799995869,http://www.fnet.bosai.go.jp/event/search.php?LANG=en,,90
20041214145600,BO,HKD027,44.48,142.34,44.08,141.7,B,68.35,68.94,61.41,61.67,-49.65,5.59,9,48.52,228.97,10.21,1.58,0.15,6.1,2,fw,-126.05,40.2441599471,7.78,12.5,97.27,178,47,73,-999,http://www.fnet.bosai.go.jp/event/search.php?LANG=en,,-53.95
20041214145600,BO,HKD026,44.73,142.26,44.08,141.7,C,85.41,85.88,77.07,77.27,-47.83,5.59,9,31.58,211.97,9.94,1.14,0.11,6.1,2,fw,-141.64,40.2441599471,7.78,12.5,97.27,178,47,73,-999,http://www.fnet.bosai.go.jp/event/search.php?LANG=en,,-38.36
20041214145600,BO,HKD025,44.81,142.07,44.08,141.7,C,87.06,87.53,78.25,78.45,-33.11,5.59,9,19.79,200.05,17.97,1.1,0.06,6.1,2,fw,-154.97,40.2441599471,7.78,12.5,97.27,178,47,73,-999,http://www.fnet.bosai.go.jp/event/search.php?LANG=en,,-25.03
20041214145600,BO,HKD024,44.05,141.86,44.08,141.7,C,13.01,15.82,10.67,12.04,-10.67,5.59,9,102.82,282.93,284.42,15.48,0.05,6.1,2,fw,-90,40.2441599471,7.78,12.5,97.27,178,47,73,-999,http://www.fnet.bosai.go.jp/event/search.php?LANG=en,,-90
20041214145600,BO,HKD029,44.31,142.64,44.08,141.7,C,79.82,80.32,75.49,75.7,-72.23,5.59,9,70.48,251.14,8.91,1.01,0.11,6.1,2,fw,-106.89,40.2441599471,7.78,12.5,97.27,178,47,73,-999,http://www.fnet.bosai.go.jp/event/search.php?LANG=en,,-73.11
20041214145600,BO,HKD028,44.36,142.45,44.08,141.7,B,68.18,68.77,62.82,63.06,-57.2,5.59,9,62.08,242.61,15.28,1.77,0.12,6.1,2,fw,-114.42,40.2441599471,7.78,12.5,97.27,178,47,73,-999,http://www.fnet.bosai.go.jp/event/search.php?LANG=en,,-65.58
20041214145600,BO,HKD122,43.2,141.78,44.08,141.7,C,97.77,98.18,89.14,89.31,-2.42,5.59,9,176.36,356.41,3.23,0.32,0.1,6.1,2,fw,-1.56,40.2441599471,7.78,12.5,97.27,178,47,73,-999,http://www.fnet.bosai.go.jp/event/search.php?LANG=en,,-1.56
20041214145600,BO,HKD120,43.34,141.66,44.08,141.7,C,81.24,81.73,72.48,73.15,9.44,5.59,9,182.03,2.01,4.07,0.31,0.08,6.1,2,hw,7.43,40.2441599471,7.78,12.5,97.27,178,47,73,-999,http://www.fnet.bosai.go.jp/event/search.php?LANG=en,,7.43
20041214145600,BO,HKD042,44.54,142.57,44.08,141.7,B,86.87,87.34,80.29,80.48,-68.84,5.59,9,52.74,233.35,9.46,0.93,0.1,6.1,2,fw,-120.98,40.2441599471,7.78,12.5,97.27,178,47,73,-999,http://www.fnet.bosai.go.jp/event/search.php?LANG=en,,-59.02
20041214145600,BO,HKD016,44.72,141.83,44.08,141.7,C,72.36,72.91,63.46,63.7,-11.13,5.59,9,8.15,188.24,12.27,3.25,0.26,6.1,2,fw,-169.9,40.2441599471,7.78,12.5,97.27,178,47,73,-999,http://www.fnet.bosai.go.jp/event/search.php?LANG=en,,-10.1
20041214145600,BO,HKD015,44.88,141.75,44.08,141.7,C,90.04,90.49,81.25,81.44,-5.07,5.59,9,2.56,182.6,16.41,1.89,0.12,6.1,2,fw,-176.42,40.2441599471,7.78,12.5,97.27,178,47,73,-999,http://www.fnet.bosai.go.jp/event/search.php?LANG=en,,-3.58000000000001
20041214145600,BO,HKD034,43.85,142.77,44.08,141.7,C,89.27,89.73,85.04,85.22,-83.79,5.59,9,105.57,286.31,3.31,0.31,0.1,6.1,2,fw,-80.18,40.2441599471,7.78,12.5,97.27,178,47,73,-999,http://www.fnet.bosai.go.jp/event/search.php?LANG=en,,-80.18
20041214145600,BO,HKD037,43.59,142.47,44.08,141.7,C,82.11,82.6,74.94,75.14,-64.32,5.59,9,130.9,311.43,3.87,0.29,0.07,6.1,2,fw,-59.13,40.2441599471,7.78,12.5,97.27,178,47,73,-999,http://www.fnet.bosai.go.jp/event/search.php?LANG=en,,-59.13
20041214145600,BO,HKD030,44.18,142.39,44.08,141.7,B,56.9,57.6,53.86,54.14,-52.38,5.59,9,77.69,258.17,19.38,1.62,0.08,6.1,2,fw,-103.43,40.2441599471,7.78,12.5,97.27,178,47,73,-999,http://www.fnet.bosai.go.jp/event/search.php?LANG=en,,-76.57
20041214145600,BO,HKD031,44.12,142.6,44.08,141.7,B,71.93,72.49,69.77,70,-69.77,5.59,9,85.84,266.46,3.87,0.39,0.1,6.1,2,fw,-90,40.2441599471,7.78,12.5,97.27,178,47,73,-999,http://www.fnet.bosai.go.jp/event/search.php?LANG=en,,-90
20041214145600,BO,HKD032,44.02,142.41,44.08,141.7,C,57.45,58.15,54.99,55.27,-54.99,5.59,9,95.47,275.96,28.47,1.77,0.06,6.1,2,fw,-90,40.2441599471,7.78,12.5,97.27,178,47,73,-999,http://www.fnet.bosai.go.jp/event/search.php?LANG=en,,-90
20041214145600,BO,HKD033,43.91,142.57,44.08,141.7,B,72.22,72.78,68.27,68.5,-67.61,5.59,9,104.49,285.1,6.23,0.44,0.07,6.1,2,fw,-82.01,40.2441599471,7.78,12.5,97.27,178,47,73,-999,http://www.fnet.bosai.go.jp/event/search.php?LANG=en,,-82.01
20041214145600,BO,HKD121,43.33,141.86,44.08,141.7,C,83.38,83.86,74.61,74.82,-11.73,5.59,9,171.26,351.36,4.33,0.42,0.1,6.1,2,fw,-9.05,40.2441599471,7.78,12.5,97.27,178,47,73,-999,http://www.fnet.bosai.go.jp/event/search.php?LANG=en,,-9.05
20041214145600,BO,HKD179,43.22,141.52,44.08,141.7,D,95.72,96.14,86.85,87.58,25.92,5.59,9,188.88,8.76,6.79,0.99,0.15,6.1,2,hw,17.08,40.2441599471,7.78,12.5,97.27,178,47,73,-999,http://www.fnet.bosai.go.jp/event/search.php?LANG=en,,17.08
20041214145600,BO,HKD018,44.55,141.97,44.08,141.7,B,56.41,57.13,47.67,48,-20.62,5.59,9,22.03,202.22,41.79,3.89,0.09,6.1,2,fw,-154.36,40.2441599471,7.78,12.5,97.27,178,47,73,-999,http://www.fnet.bosai.go.jp/event/search.php?LANG=en,,-25.64
20041214145600,BO,HKD019,44.36,141.7,44.08,141.7,C,31.79,33.04,23.09,23.81,1.67,5.59,9,359.83,179.83,152.44,12.78,0.08,6.1,2,hw,175.85,40.2441599471,7.78,12.5,97.27,178,47,73,-999,http://www.fnet.bosai.go.jp/event/search.php?LANG=en,,4.15000000000001
20041214145600,BO,HKD119,43.52,142.19,44.08,141.7,C,73.31,73.86,64.97,65.21,-43.71,5.59,9,147.11,327.45,2.66,0.39,0.15,6.1,2,fw,-42.28,40.2441599471,7.78,12.5,97.27,178,47,73,-999,http://www.fnet.bosai.go.jp/event/search.php?LANG=en,,-42.28
20041214145600,BO,HKD117,43.72,142.05,44.08,141.7,B,48.22,49.05,40.13,40.52,-29.87,5.59,9,143.79,324.04,15.22,1.6,0.11,6.1,2,fw,-48.1,40.2441599471,7.78,12.5,97.27,178,47,73,-999,http://www.fnet.bosai.go.jp/event/search.php?LANG=en,,-48.1
20041214145600,BO,HKD116,43.8,141.93,44.08,141.7,B,35.85,36.97,27.54,28.11,-19.36,5.59,9,148.14,328.3,76.03,5.56,0.07,6.1,2,fw,-44.65,40.2441599471,7.78,12.5,97.27,178,47,73,-999,http://www.fnet.bosai.go.jp/event/search.php?LANG=en,,-44.65
20041214145600,BO,HKD115,44.01,142.15,44.08,141.7,C,36.8,37.89,33.83,34.29,-33.83,5.59,9,101.67,281.99,30.43,2.12,0.07,6.1,2,fw,-89.29,40.2441599471,7.78,12.5,97.27,178,47,73,-999,http://www.fnet.bosai.go.jp/event/search.php?LANG=en,,-89.29
20041214145600,BO,HKD175,43.6,141.39,44.08,141.7,B,58.25,58.94,49.65,50.91,35.8,5.59,9,205.52,25.31,5.93,0.27,0.05,6.1,2,hw,42.42,40.2441599471,7.78,12.5,97.27,178,47,73,-999,http://www.fnet.bosai.go.jp/event/search.php?LANG=en,,42.42
20041214145600,BO,HKD017,44.53,141.77,44.08,141.7,B,51.1,51.88,42.21,42.58,-4.68,5.59,9,6.02,186.07,16.46,2.92,0.18,6.1,2,fw,-173.64,40.2441599471,7.78,12.5,97.27,178,47,73,-999,http://www.fnet.bosai.go.jp/event/search.php?LANG=en,,-6.36000000000001
20041214145600,BO,HKD177,43.4,141.43,44.08,141.7,C,77.95,78.47,69.09,70,33.49,5.59,9,195.95,15.77,4.1,0.26,0.06,6.1,2,hw,27.97,40.2441599471,7.78,12.5,97.27,178,47,73,-999,http://www.fnet.bosai.go.jp/event/search.php?LANG=en,,27.97
20041214145600,BO,HKD176,43.53,141.59,44.08,141.7,C,60.9,61.56,52.01,53.21,16.48,5.59,9,188.13,8.06,13.24,0.51,0.04,6.1,2,hw,17.98,40.2441599471,7.78,12.5,97.27,178,47,73,-999,http://www.fnet.bosai.go.jp/event/search.php?LANG=en,,17.98
20041214145600,BO,HKD041,43.62,142.68,44.08,141.7,B,93.65,94.08,87.34,87.52,-80.24,5.59,9,121.94,302.62,4.08,0.49,0.12,6.1,2,fw,-66.74,40.2441599471,7.78,12.5,97.27,178,47,73,-999,http://www.fnet.bosai.go.jp/event/search.php?LANG=en,,-66.74
19970326173100,BO,KMM009,32.69,130.99,31.99,130.37,B,97.67,98,94.69,94.71,85.34,2,8,36.98,217.31,35.36,1.33,0.04,6.3,0,hw,115.67,41.9339697738,10,15,150,280,90,0,-999,http://equake-rc.info/SRCMOD/searchmodels/viewmodel/s1997KAGOSH01HORI/,"Horikawa, H. 2001. Earthquake doublet in Kagoshima, Japan: Rupture of asperities in a stress shadow. Bull. Seis. Soc. Am 91 (1):112-127.  ",64.33
19970326173100,BO,KGS020,31.24,130.49,31.99,130.37,B,81.38,81.77,79.74,79.77,-72.94,2,8,171.71,351.78,42.55,2.87,0.07,6.3,0,fw,-113.84,41.9339697738,10,15,150,280,90,0,-999,http://equake-rc.info/SRCMOD/searchmodels/viewmodel/s1997KAGOSH01HORI/,"Horikawa, H. 2001. Earthquake doublet in Kagoshima, Japan: Rupture of asperities in a stress shadow. Bull. Seis. Soc. Am 91 (1):112-127.  ",-113.84
19970326173100,BO,KMM008,32.69,130.66,31.99,130.37,C,83.78,84.16,83.18,83.21,82.9,2,8,19.45,199.61,56.44,7.87,0.14,6.3,0,hw,94.74,41.9339697738,10,15,150,280,90,0,-999,http://equake-rc.info/SRCMOD/searchmodels/viewmodel/s1997KAGOSH01HORI/,"Horikawa, H. 2001. Earthquake doublet in Kagoshima, Japan: Rupture of asperities in a stress shadow. Bull. Seis. Soc. Am 91 (1):112-127.  ",85.26
19970326173100,BO,KGS003,32.06,130.59,31.99,130.37,C,21.25,22.71,15.79,15.91,11.97,2,8,69.69,249.81,187.65,14.01,0.07,6.3,0,hw,130.71,41.9339697738,10,15,150,280,90,0,-999,http://equake-rc.info/SRCMOD/searchmodels/viewmodel/s1997KAGOSH01HORI/,"Horikawa, H. 2001. Earthquake doublet in Kagoshima, Japan: Rupture of asperities in a stress shadow. Bull. Seis. Soc. Am 91 (1):112-127.  ",49.29
19970326173100,BO,KGS011,31.59,130.35,31.99,130.37,C,42.13,42.88,42.13,42.18,-42.13,2,8,181.98,1.97,138.87,8.9,0.06,6.3,0,fw,-90,41.9339697738,10,15,150,280,90,0,-999,http://equake-rc.info/SRCMOD/searchmodels/viewmodel/s1997KAGOSH01HORI/,"Horikawa, H. 2001. Earthquake doublet in Kagoshima, Japan: Rupture of asperities in a stress shadow. Bull. Seis. Soc. Am 91 (1):112-127.  ",-90
