EQID,Network,Station,STLA,STLO,EVLA,EVLO,Vs30,Rep,Rhyp,Rjb,Rrup,Rx,Ztor,Depth,Azimuth,BackAzimuth,PGA,PGV,PGV/PGA,Mw,FaultType,FWHW,Source2SiteAzimuth,StressDrop,RuptureWidth,RuptureLength,RuptureArea,Strike,Dip,Rake,Tp,EQInfo,FTInfo,S2SAZ
19970326173100,BO,KMM020,32.36,130.18,31.99,130.37,B,48,48.66,44.28,44.32,38.91,2,8,337.5,157.41,43.71,2.08,0.05,6.3,0,hw,61.49,41.9339697738,10,15,150,280,90,0,-999,http://equake-rc.info/SRCMOD/searchmodels/viewmodel/s1997KAGOSH01HORI/,"Horikawa, H. 2001. Earthquake doublet in Kagoshima, Japan: Rupture of asperities in a stress shadow. Bull. Seis. Soc. Am 91 (1):112-127.  ",61.49
19970326173100,BO,KGS036,31.84,129.87,31.99,130.37,C,51.3,51.92,44.63,44.67,-20.98,2,8,250.65,70.39,75.78,4.53,0.06,6.3,0,fw,-28.04,41.9339697738,10,15,150,280,90,0,-999,http://equake-rc.info/SRCMOD/searchmodels/viewmodel/s1997KAGOSH01HORI/,"Horikawa, H. 2001. Earthquake doublet in Kagoshima, Japan: Rupture of asperities in a stress shadow. Bull. Seis. Soc. Am 91 (1):112-127.  ",-28.04
19970326173100,BO,KMM016,32.22,130.73,31.99,130.37,C,42.24,42.99,37.83,37.89,31.04,2,8,52.89,233.08,62.46,2.48,0.04,6.3,0,hw,124.87,41.9339697738,10,15,150,280,90,0,-999,http://equake-rc.info/SRCMOD/searchmodels/viewmodel/s1997KAGOSH01HORI/,"Horikawa, H. 2001. Earthquake doublet in Kagoshima, Japan: Rupture of asperities in a stress shadow. Bull. Seis. Soc. Am 91 (1):112-127.  ",55.13
19970326173100,BO,KMM017,32.26,130.93,31.99,130.37,B,60,60.53,54.51,54.55,37.24,2,8,60.34,240.64,23.87,3.74,0.16,6.3,0,hw,136.91,41.9339697738,10,15,150,280,90,0,-999,http://equake-rc.info/SRCMOD/searchmodels/viewmodel/s1997KAGOSH01HORI/,"Horikawa, H. 2001. Earthquake doublet in Kagoshima, Japan: Rupture of asperities in a stress shadow. Bull. Seis. Soc. Am 91 (1):112-127.  ",43.09
19970326173100,BO,KMM014,32.4,130.82,31.99,130.37,A,63.07,63.57,59.5,59.54,52.03,2,8,43.31,223.55,47.94,1.56,0.03,6.3,0,hw,119.03,41.9339697738,10,15,150,280,90,0,-999,http://equake-rc.info/SRCMOD/searchmodels/viewmodel/s1997KAGOSH01HORI/,"Horikawa, H. 2001. Earthquake doublet in Kagoshima, Japan: Rupture of asperities in a stress shadow. Bull. Seis. Soc. Am 91 (1):112-127.  ",60.97
19970326173100,BO,KMM015,32.22,130.4,31.99,130.37,C,27.55,28.69,27.34,27.42,27.34,2,8,8.32,188.34,153.1,9.59,0.06,6.3,0,hw,90,41.9339697738,10,15,150,280,90,0,-999,http://equake-rc.info/SRCMOD/searchmodels/viewmodel/s1997KAGOSH01HORI/,"Horikawa, H. 2001. Earthquake doublet in Kagoshima, Japan: Rupture of asperities in a stress shadow. Bull. Seis. Soc. Am 91 (1):112-127.  ",90
19970326173100,BO,KMM012,32.51,130.6,31.99,130.37,C,63.18,63.69,62.52,62.55,62.37,2,8,21.08,201.2,45.68,5.9,0.13,6.3,0,hw,93.91,41.9339697738,10,15,150,280,90,0,-999,http://equake-rc.info/SRCMOD/searchmodels/viewmodel/s1997KAGOSH01HORI/,"Horikawa, H. 2001. Earthquake doublet in Kagoshima, Japan: Rupture of asperities in a stress shadow. Bull. Seis. Soc. Am 91 (1):112-127.  ",86.09
19970326173100,BO,KMM013,32.37,130.51,31.99,130.37,C,45.5,46.2,45.39,45.44,45.39,2,8,17.97,198.05,38.88,2.12,0.05,6.3,0,hw,90,41.9339697738,10,15,150,280,90,0,-999,http://equake-rc.info/SRCMOD/searchmodels/viewmodel/s1997KAGOSH01HORI/,"Horikawa, H. 2001. Earthquake doublet in Kagoshima, Japan: Rupture of asperities in a stress shadow. Bull. Seis. Soc. Am 91 (1):112-127.  ",90
19970326173100,BO,KGS018,31.38,130.54,31.99,130.37,C,67.36,67.83,65,65.03,-55.53,2,8,165.8,345.9,66.25,4.74,0.07,6.3,0,fw,-121.31,41.9339697738,10,15,150,280,90,0,-999,http://equake-rc.info/SRCMOD/searchmodels/viewmodel/s1997KAGOSH01HORI/,"Horikawa, H. 2001. Earthquake doublet in Kagoshima, Japan: Rupture of asperities in a stress shadow. Bull. Seis. Soc. Am 91 (1):112-127.  ",-121.31
19970326173100,BO,KMM011,32.62,130.87,31.99,130.37,C,84.84,85.22,82.32,82.35,76.77,2,8,33.83,214.1,38.03,2.54,0.07,6.3,0,hw,111.17,41.9339697738,10,15,150,280,90,0,-999,http://equake-rc.info/SRCMOD/searchmodels/viewmodel/s1997KAGOSH01HORI/,"Horikawa, H. 2001. Earthquake doublet in Kagoshima, Japan: Rupture of asperities in a stress shadow. Bull. Seis. Soc. Am 91 (1):112-127.  ",68.83
19970326173100,BO,KGS016,31.42,130.32,31.99,130.37,C,61.51,62.02,61.58,61.61,-61.58,2,8,183.66,3.64,60.01,3.63,0.06,6.3,0,fw,-90,41.9339697738,10,15,150,280,90,0,-999,http://equake-rc.info/SRCMOD/searchmodels/viewmodel/s1997KAGOSH01HORI/,"Horikawa, H. 2001. Earthquake doublet in Kagoshima, Japan: Rupture of asperities in a stress shadow. Bull. Seis. Soc. Am 91 (1):112-127.  ",-90
19970326173100,BO,KGS017,31.4,130.87,31.99,130.37,C,78.28,78.68,73.18,73.21,-43.19,2,8,143.69,323.95,12.61,1.12,0.09,6.3,0,fw,-143.83,41.9339697738,10,15,150,280,90,0,-999,http://equake-rc.info/SRCMOD/searchmodels/viewmodel/s1997KAGOSH01HORI/,"Horikawa, H. 2001. Earthquake doublet in Kagoshima, Japan: Rupture of asperities in a stress shadow. Bull. Seis. Soc. Am 91 (1):112-127.  ",-143.83
19970326173100,BO,KGS014,31.5,130.7,31.99,130.37,C,60.14,60.67,55.78,55.81,-36.65,2,8,149.62,329.8,7.92,1.34,0.17,6.3,0,fw,-138.92,41.9339697738,10,15,150,280,90,0,-999,http://equake-rc.info/SRCMOD/searchmodels/viewmodel/s1997KAGOSH01HORI/,"Horikawa, H. 2001. Earthquake doublet in Kagoshima, Japan: Rupture of asperities in a stress shadow. Bull. Seis. Soc. Am 91 (1):112-127.  ",-138.92
19970326173100,BO,KGS015,31.43,131.01,31.99,130.37,C,83.95,84.34,78.01,78.03,-36.69,2,8,135,315.34,27.32,2.21,0.08,6.3,0,fw,-151.94,41.9339697738,10,15,150,280,90,0,-999,http://equake-rc.info/SRCMOD/searchmodels/viewmodel/s1997KAGOSH01HORI/,"Horikawa, H. 2001. Earthquake doublet in Kagoshima, Japan: Rupture of asperities in a stress shadow. Bull. Seis. Soc. Am 91 (1):112-127.  ",-151.94
19970326173100,BO,KGS012,31.61,130.57,31.99,130.37,C,43.9,44.62,40.32,40.36,-28.36,2,8,154.8,334.91,60.64,7.9,0.13,6.3,0,fw,-135.29,41.9339697738,10,15,150,280,90,0,-999,http://equake-rc.info/SRCMOD/searchmodels/viewmodel/s1997KAGOSH01HORI/,"Horikawa, H. 2001. Earthquake doublet in Kagoshima, Japan: Rupture of asperities in a stress shadow. Bull. Seis. Soc. Am 91 (1):112-127.  ",-135.29
19970326173100,BO,KGS013,31.6,130.99,31.99,130.37,B,70.63,71.08,63.91,63.94,-21.01,2,8,125.73,306.06,20.51,1.93,0.09,6.3,0,fw,-160.81,41.9339697738,10,15,150,280,90,0,-999,http://equake-rc.info/SRCMOD/searchmodels/viewmodel/s1997KAGOSH01HORI/,"Horikawa, H. 2001. Earthquake doublet in Kagoshima, Japan: Rupture of asperities in a stress shadow. Bull. Seis. Soc. Am 91 (1):112-127.  ",-160.81
19970326173100,BO,KGS010,31.71,130.27,31.99,130.37,C,30.35,31.38,29.91,29.98,-29.91,2,8,195.95,15.9,101.63,10.37,0.1,6.3,0,fw,-90,41.9339697738,10,15,150,280,90,0,-999,http://equake-rc.info/SRCMOD/searchmodels/viewmodel/s1997KAGOSH01HORI/,"Horikawa, H. 2001. Earthquake doublet in Kagoshima, Japan: Rupture of asperities in a stress shadow. Bull. Seis. Soc. Am 91 (1):112-127.  ",-90
19970326173100,BO,KGS037,31.64,129.71,31.99,130.37,C,73.99,74.42,68.31,68.33,-43.48,2,8,238.44,58.1,21.75,1.01,0.05,6.3,0,fw,-39.54,41.9339697738,10,15,150,280,90,0,-999,http://equake-rc.info/SRCMOD/searchmodels/viewmodel/s1997KAGOSH01HORI/,"Horikawa, H. 2001. Earthquake doublet in Kagoshima, Japan: Rupture of asperities in a stress shadow. Bull. Seis. Soc. Am 91 (1):112-127.  ",-39.54
19970326173100,BO,MYZ015,31.72,131.06,31.99,130.37,C,69.59,70.05,62.19,62.23,-9.88,2,8,114.02,294.39,61.94,7.26,0.12,6.3,0,fw,-170.86,41.9339697738,10,15,150,280,90,0,-999,http://equake-rc.info/SRCMOD/searchmodels/viewmodel/s1997KAGOSH01HORI/,"Horikawa, H. 2001. Earthquake doublet in Kagoshima, Japan: Rupture of asperities in a stress shadow. Bull. Seis. Soc. Am 91 (1):112-127.  ",-170.86
19970326173100,BO,MYZ014,31.85,131.3,31.99,130.37,C,87.62,87.99,79.88,79.9,3.41,2,8,99.72,280.22,11.35,1.06,0.09,6.3,0,hw,177.56,41.9339697738,10,15,150,280,90,0,-999,http://equake-rc.info/SRCMOD/searchmodels/viewmodel/s1997KAGOSH01HORI/,"Horikawa, H. 2001. Earthquake doublet in Kagoshima, Japan: Rupture of asperities in a stress shadow. Bull. Seis. Soc. Am 91 (1):112-127.  ",2.44
19970326173100,BO,MYZ017,31.46,131.23,31.99,130.37,B,97.31,97.64,90.52,90.55,-29.97,2,8,125.08,305.54,19.05,1.82,0.1,6.3,0,fw,-160.67,41.9339697738,10,15,150,280,90,0,-999,http://equake-rc.info/SRCMOD/searchmodels/viewmodel/s1997KAGOSH01HORI/,"Horikawa, H. 2001. Earthquake doublet in Kagoshima, Japan: Rupture of asperities in a stress shadow. Bull. Seis. Soc. Am 91 (1):112-127.  ",-160.67
19970326173100,BO,MYZ011,32,131.26,31.99,130.37,B,82.11,82.5,74.53,74.56,16.52,2,8,89.08,269.55,9.64,1.31,0.14,6.3,0,hw,167.2,41.9339697738,10,15,150,280,90,0,-999,http://equake-rc.info/SRCMOD/searchmodels/viewmodel/s1997KAGOSH01HORI/,"Horikawa, H. 2001. Earthquake doublet in Kagoshima, Japan: Rupture of asperities in a stress shadow. Bull. Seis. Soc. Am 91 (1):112-127.  ",12.8
19970326173100,BO,MYZ010,32,130.97,31.99,130.37,C,55.34,55.92,47.86,47.9,12.03,2,8,88.64,268.96,18.16,3.65,0.2,6.3,0,hw,165.44,41.9339697738,10,15,150,280,90,0,-999,http://equake-rc.info/SRCMOD/searchmodels/viewmodel/s1997KAGOSH01HORI/,"Horikawa, H. 2001. Earthquake doublet in Kagoshima, Japan: Rupture of asperities in a stress shadow. Bull. Seis. Soc. Am 91 (1):112-127.  ",14.56
19970326173100,BO,MYZ013,31.91,131.42,31.99,130.37,D,97.73,98.06,89.99,90.01,11.18,2,8,94.64,275.19,14.94,2.28,0.15,6.3,0,hw,172.87,41.9339697738,10,15,150,280,90,0,-999,http://equake-rc.info/SRCMOD/searchmodels/viewmodel/s1997KAGOSH01HORI/,"Horikawa, H. 2001. Earthquake doublet in Kagoshima, Japan: Rupture of asperities in a stress shadow. Bull. Seis. Soc. Am 91 (1):112-127.  ",7.13
19970326173100,BO,MYZ012,31.88,131.07,31.99,130.37,B,64.8,65.29,57.1,57.14,2.89,2,8,99.71,280.08,23.89,1.63,0.07,6.3,0,hw,177.09,41.9339697738,10,15,150,280,90,0,-999,http://equake-rc.info/SRCMOD/searchmodels/viewmodel/s1997KAGOSH01HORI/,"Horikawa, H. 2001. Earthquake doublet in Kagoshima, Japan: Rupture of asperities in a stress shadow. Bull. Seis. Soc. Am 91 (1):112-127.  ",2.91
19970326173100,BO,NGS010,32.74,129.88,31.99,130.37,C,97.74,98.07,93.27,93.29,71.65,2,8,331.16,150.9,11.66,0.49,0.04,6.3,0,hw,50.19,41.9339697738,10,15,150,280,90,0,-999,http://equake-rc.info/SRCMOD/searchmodels/viewmodel/s1997KAGOSH01HORI/,"Horikawa, H. 2001. Earthquake doublet in Kagoshima, Japan: Rupture of asperities in a stress shadow. Bull. Seis. Soc. Am 91 (1):112-127.  ",50.19
19970326173100,BO,NGS013,32.58,129.76,31.99,130.37,B,90.11,90.47,84.47,84.49,51.5,2,8,319.33,139,7.85,0.92,0.12,6.3,0,hw,37.57,41.9339697738,10,15,150,280,90,0,-999,http://equake-rc.info/SRCMOD/searchmodels/viewmodel/s1997KAGOSH01HORI/,"Horikawa, H. 2001. Earthquake doublet in Kagoshima, Japan: Rupture of asperities in a stress shadow. Bull. Seis. Soc. Am 91 (1):112-127.  ",37.57
19970326173100,BO,NGS012,32.79,130.35,31.99,130.37,C,91.05,91.4,89.86,89.89,89.12,2,8,358.87,178.86,12.26,1.09,0.09,6.3,0,hw,82.63,41.9339697738,10,15,150,280,90,0,-999,http://equake-rc.info/SRCMOD/searchmodels/viewmodel/s1997KAGOSH01HORI/,"Horikawa, H. 2001. Earthquake doublet in Kagoshima, Japan: Rupture of asperities in a stress shadow. Bull. Seis. Soc. Am 91 (1):112-127.  ",82.63
19970326173100,BO,NGS014,32.61,130.18,31.99,130.37,D,73.76,74.19,71.01,71.04,66.23,2,8,346.29,166.19,46.24,3.52,0.08,6.3,0,hw,68.85,41.9339697738,10,15,150,280,90,0,-999,http://equake-rc.info/SRCMOD/searchmodels/viewmodel/s1997KAGOSH01HORI/,"Horikawa, H. 2001. Earthquake doublet in Kagoshima, Japan: Rupture of asperities in a stress shadow. Bull. Seis. Soc. Am 91 (1):112-127.  ",68.85
19970326173100,BO,KGS023,31.2,130.85,31.99,130.37,C,95.87,96.2,91.71,91.73,-65.23,2,8,152.11,332.36,19.38,1.57,0.08,6.3,0,fw,-134.66,41.9339697738,10,15,150,280,90,0,-999,http://equake-rc.info/SRCMOD/searchmodels/viewmodel/s1997KAGOSH01HORI/,"Horikawa, H. 2001. Earthquake doublet in Kagoshima, Japan: Rupture of asperities in a stress shadow. Bull. Seis. Soc. Am 91 (1):112-127.  ",-134.66
19970326173100,BO,KGS021,31.25,130.63,31.99,130.37,C,82.57,82.96,79.74,79.76,-66.11,2,8,162.58,342.72,32.98,2.26,0.07,6.3,0,fw,-123.99,41.9339697738,10,15,150,280,90,0,-999,http://equake-rc.info/SRCMOD/searchmodels/viewmodel/s1997KAGOSH01HORI/,"Horikawa, H. 2001. Earthquake doublet in Kagoshima, Japan: Rupture of asperities in a stress shadow. Bull. Seis. Soc. Am 91 (1):112-127.  ",-123.99
19970326173100,BO,KMM018,32.39,130.39,31.99,130.37,B,47.25,47.92,46.6,46.65,46.6,2,8,2.8,182.81,52.36,2.01,0.04,6.3,0,hw,90,41.9339697738,10,15,150,280,90,0,-999,http://equake-rc.info/SRCMOD/searchmodels/viewmodel/s1997KAGOSH01HORI/,"Horikawa, H. 2001. Earthquake doublet in Kagoshima, Japan: Rupture of asperities in a stress shadow. Bull. Seis. Soc. Am 91 (1):112-127.  ",90
19970326173100,BO,KGS019,31.28,130.3,31.99,130.37,C,77,77.42,77.13,77.16,-77.13,2,8,184.45,4.42,57.93,2.91,0.05,6.3,0,fw,-90,41.9339697738,10,15,150,280,90,0,-999,http://equake-rc.info/SRCMOD/searchmodels/viewmodel/s1997KAGOSH01HORI/,"Horikawa, H. 2001. Earthquake doublet in Kagoshima, Japan: Rupture of asperities in a stress shadow. Bull. Seis. Soc. Am 91 (1):112-127.  ",-90
19970326173100,BO,KMM006,32.79,130.77,31.99,130.37,C,97.72,98.05,96.58,96.6,95.09,2,8,23.08,203.3,13.38,2.29,0.17,6.3,0,hw,100.08,41.9339697738,10,15,150,280,90,0,-999,http://equake-rc.info/SRCMOD/searchmodels/viewmodel/s1997KAGOSH01HORI/,"Horikawa, H. 2001. Earthquake doublet in Kagoshima, Japan: Rupture of asperities in a stress shadow. Bull. Seis. Soc. Am 91 (1):112-127.  ",79.92
19970326173100,BO,KGS009,31.74,130.76,31.99,130.37,C,43.7,44.42,37.09,37.14,-11.62,2,8,126.28,306.49,128.09,12.99,0.1,6.3,0,fw,-161.74,41.9339697738,10,15,150,280,90,0,-999,http://equake-rc.info/SRCMOD/searchmodels/viewmodel/s1997KAGOSH01HORI/,"Horikawa, H. 2001. Earthquake doublet in Kagoshima, Japan: Rupture of asperities in a stress shadow. Bull. Seis. Soc. Am 91 (1):112-127.  ",-161.74
19970326173100,BO,KGS008,31.76,130.57,31.99,130.37,C,28.63,29.73,23.74,23.82,-11.82,2,8,141.96,322.07,87.82,13.54,0.15,6.3,0,fw,-150.14,41.9339697738,10,15,150,280,90,0,-999,http://equake-rc.info/SRCMOD/searchmodels/viewmodel/s1997KAGOSH01HORI/,"Horikawa, H. 2001. Earthquake doublet in Kagoshima, Japan: Rupture of asperities in a stress shadow. Bull. Seis. Soc. Am 91 (1):112-127.  ",-150.14
19970326173100,BO,KMM010,32.61,130.49,31.99,130.37,D,72.2,72.64,72.28,72.3,72.28,2,8,9.37,189.44,31.21,3.18,0.1,6.3,0,hw,90,41.9339697738,10,15,150,280,90,0,-999,http://equake-rc.info/SRCMOD/searchmodels/viewmodel/s1997KAGOSH01HORI/,"Horikawa, H. 2001. Earthquake doublet in Kagoshima, Japan: Rupture of asperities in a stress shadow. Bull. Seis. Soc. Am 91 (1):112-127.  ",90
19970326173100,BO,KGS005,31.9,130.45,31.99,130.37,C,9.61,12.51,6.36,6.66,-6.36,2,8,139.23,319.28,505.1,35.03,0.07,6.3,0,fw,-90,41.9339697738,10,15,150,280,90,0,-999,http://equake-rc.info/SRCMOD/searchmodels/viewmodel/s1997KAGOSH01HORI/,"Horikawa, H. 2001. Earthquake doublet in Kagoshima, Japan: Rupture of asperities in a stress shadow. Bull. Seis. Soc. Am 91 (1):112-127.  ",-90
19970326173100,BO,KGS004,32.01,130.19,31.99,130.37,D,19.11,20.72,11.64,11.81,1.34,2,8,281.03,100.94,293.05,43.52,0.15,6.3,0,hw,6.59,41.9339697738,10,15,150,280,90,0,1.5119999662,http://equake-rc.info/SRCMOD/searchmodels/viewmodel/s1997KAGOSH01HORI/,"Horikawa, H. 2001. Earthquake doublet in Kagoshima, Japan: Rupture of asperities in a stress shadow. Bull. Seis. Soc. Am 91 (1):112-127.  ",6.59
19970326173100,BO,KGS007,31.81,130.3,31.99,130.37,C,18.83,20.46,18.24,18.35,-18.24,2,8,197.09,17.05,197.78,28.49,0.14,6.3,0,fw,-90,41.9339697738,10,15,150,280,90,0,-999,http://equake-rc.info/SRCMOD/searchmodels/viewmodel/s1997KAGOSH01HORI/,"Horikawa, H. 2001. Earthquake doublet in Kagoshima, Japan: Rupture of asperities in a stress shadow. Bull. Seis. Soc. Am 91 (1):112-127.  ",-90
19970326173100,BO,KGS006,31.91,130.7,31.99,130.37,C,30.54,31.57,22.93,23.02,-0.26,2,8,105.46,285.64,175.66,14.09,0.08,6.3,0,fw,-179.36,41.9339697738,10,15,150,280,90,0,-999,http://equake-rc.info/SRCMOD/searchmodels/viewmodel/s1997KAGOSH01HORI/,"Horikawa, H. 2001. Earthquake doublet in Kagoshima, Japan: Rupture of asperities in a stress shadow. Bull. Seis. Soc. Am 91 (1):112-127.  ",-179.36
19970326173100,BO,KGS001,32.19,130.18,31.99,130.37,B,32.08,33.06,26.92,27,20.09,2,8,322.46,142.36,104.17,4.31,0.04,6.3,0,hw,48.27,41.9339697738,10,15,150,280,90,0,-999,http://equake-rc.info/SRCMOD/searchmodels/viewmodel/s1997KAGOSH01HORI/,"Horikawa, H. 2001. Earthquake doublet in Kagoshima, Japan: Rupture of asperities in a stress shadow. Bull. Seis. Soc. Am 91 (1):112-127.  ",48.27
19970326173100,BO,KMM022,32.19,130.03,31.99,130.37,C,42.33,43.08,35.77,35.82,16.36,2,8,305.98,125.8,59.04,5.79,0.1,6.3,0,hw,27.22,41.9339697738,10,15,150,280,90,0,-999,http://equake-rc.info/SRCMOD/searchmodels/viewmodel/s1997KAGOSH01HORI/,"Horikawa, H. 2001. Earthquake doublet in Kagoshima, Japan: Rupture of asperities in a stress shadow. Bull. Seis. Soc. Am 91 (1):112-127.  ",27.22
19970326173100,BO,KMM021,32.38,130,31.99,130.37,C,58.56,59.11,53.17,53.21,35.61,2,8,321.63,141.44,23.87,1.45,0.06,6.3,0,hw,42.05,41.9339697738,10,15,150,280,90,0,-999,http://equake-rc.info/SRCMOD/searchmodels/viewmodel/s1997KAGOSH01HORI/,"Horikawa, H. 2001. Earthquake doublet in Kagoshima, Japan: Rupture of asperities in a stress shadow. Bull. Seis. Soc. Am 91 (1):112-127.  ",42.05
19970326173100,BO,KGS002,32.09,130.35,31.99,130.37,B,14,16.12,12.78,12.93,12.78,2,8,354.53,174.52,452.23,13.49,0.03,6.3,0,hw,90,41.9339697738,10,15,150,280,90,0,-999,http://equake-rc.info/SRCMOD/searchmodels/viewmodel/s1997KAGOSH01HORI/,"Horikawa, H. 2001. Earthquake doublet in Kagoshima, Japan: Rupture of asperities in a stress shadow. Bull. Seis. Soc. Am 91 (1):112-127.  ",90
19970326173100,BO,MYZ020,32.46,131.15,31.99,130.37,B,89.68,90.03,84.6,84.62,61.06,2,8,54.59,235,14.56,1.1,0.08,6.3,0,hw,133.8,41.9339697738,10,15,150,280,90,0,-999,http://equake-rc.info/SRCMOD/searchmodels/viewmodel/s1997KAGOSH01HORI/,"Horikawa, H. 2001. Earthquake doublet in Kagoshima, Japan: Rupture of asperities in a stress shadow. Bull. Seis. Soc. Am 91 (1):112-127.  ",46.2
19970326173100,BO,MYZ007,32.24,131.12,31.99,130.37,B,74.86,75.28,68.5,68.53,37.53,2,8,68.49,248.89,9.89,0.47,0.05,6.3,0,hw,146.78,41.9339697738,10,15,150,280,90,0,-999,http://equake-rc.info/SRCMOD/searchmodels/viewmodel/s1997KAGOSH01HORI/,"Horikawa, H. 2001. Earthquake doublet in Kagoshima, Japan: Rupture of asperities in a stress shadow. Bull. Seis. Soc. Am 91 (1):112-127.  ",33.22
19970326173100,BO,MYZ008,32.11,131.39,31.99,130.37,B,96.18,96.51,88.84,88.86,29.17,2,8,81.92,262.47,20.12,1.61,0.08,6.3,0,hw,160.83,41.9339697738,10,15,150,280,90,0,-999,http://equake-rc.info/SRCMOD/searchmodels/viewmodel/s1997KAGOSH01HORI/,"Horikawa, H. 2001. Earthquake doublet in Kagoshima, Japan: Rupture of asperities in a stress shadow. Bull. Seis. Soc. Am 91 (1):112-127.  ",19.17
19970326173100,BO,MYZ009,32.05,130.81,31.99,130.37,C,40.94,41.71,33.92,33.98,14.1,2,8,80.89,261.13,41.43,11.85,0.29,6.3,0,hw,155.43,41.9339697738,10,15,150,280,90,0,-999,http://equake-rc.info/SRCMOD/searchmodels/viewmodel/s1997KAGOSH01HORI/,"Horikawa, H. 2001. Earthquake doublet in Kagoshima, Japan: Rupture of asperities in a stress shadow. Bull. Seis. Soc. Am 91 (1):112-127.  ",24.57
20120314210500,BO,CHB018,35.16,140.32,35.75,140.93,B,85.67,86.97,78.67,80.72,77.18,10.33,15,220.43,40.08,38,1.63,0.04,6.1,4,hw,66.43,24.4738822609,9.89,13.71,135.52,165,52,-122,-999,http://www.fnet.bosai.go.jp/event/search.php?LANG=en,,66.43
20120314210500,BO,CHB016,35.3,140.39,35.75,140.93,D,70.05,71.64,63.56,66.09,66.02,10.33,15,225.07,44.76,39.4,3.81,0.1,6.1,4,hw,72.22,24.4738822609,9.89,13.71,135.52,165,52,-122,-999,http://www.fnet.bosai.go.jp/event/search.php?LANG=en,,72.22
20120314210500,BO,CHB017,35.3,140.08,35.75,140.93,C,92.24,93.45,87.13,88.99,92.26,10.33,15,237.63,57.13,24.26,1.86,0.08,6.1,4,hw,82.07,24.4738822609,9.89,13.71,135.52,165,52,-122,-999,http://www.fnet.bosai.go.jp/event/search.php?LANG=en,,82.07
