EQID,Network,Station,STLA,STLO,EVLA,EVLO,Vs30,Rep,Rhyp,Rjb,Rrup,Rx,Ztor,Depth,Azimuth,BackAzimuth,PGA,PGV,PGV/PGA,Mw,FaultType,FWHW,Source2SiteAzimuth,StressDrop,RuptureWidth,RuptureLength,RuptureArea,Strike,Dip,Rake,Tp,EQInfo,FTInfo,S2SAZ
20180906030800,BO,HKD140,43.19,140.99,42.7,142,C,98.59,106.39,82.87,91.07,34.62,32.55,40,303.91,123.23,58.28,3.93,0.07,6.7,3,hw,155.99,41.9471893442,13.71,27.48,376.7,349,65,107,-999,http://www.fnet.bosai.go.jp/event/search.php?LANG=en,,24.01
20180906030800,BO,HKD106,42.34,142.37,42.7,142,C,50.05,64.07,33.68,47.14,5.35,32.55,40,142.61,322.86,175.28,21.86,0.12,6.7,3,hw,9.02,41.9471893442,13.71,27.48,376.7,349,65,107,-999,http://www.fnet.bosai.go.jp/event/search.php?LANG=en,,9.02
20180906030800,BO,HKD180,43.14,141.35,42.7,142,D,72,82.36,56.6,66.56,17.28,32.55,40,312.86,132.42,143.46,21.54,0.15,6.7,3,hw,162.68,41.9471893442,13.71,27.48,376.7,349,65,107,-999,http://www.fnet.bosai.go.jp/event/search.php?LANG=en,,17.32
20180906030800,BO,HKD181,43.12,141.55,42.7,142,C,59.25,71.48,43.33,54.6,6.7,32.55,40,321.43,141.13,233.71,18.47,0.08,6.7,3,hw,171.2,41.9471893442,13.71,27.48,376.7,349,65,107,-999,http://www.fnet.bosai.go.jp/event/search.php?LANG=en,,8.80000000000001
20180906030800,BO,HKD182,42.99,141.55,42.7,142,C,48.93,63.2,33.53,48.09,14.01,32.55,40,311.76,131.46,183.16,19.59,0.11,6.7,3,hw,156.69,41.9471893442,13.71,27.48,376.7,349,65,107,-999,http://www.fnet.bosai.go.jp/event/search.php?LANG=en,,23.31
20180906030800,BO,HKD183,42.97,141.17,42.7,142,B,74.65,84.69,59.22,70.35,35.91,32.55,40,294.17,113.6,51.86,2.55,0.05,6.7,3,hw,144.85,41.9471893442,13.71,27.48,376.7,349,65,107,-999,http://www.fnet.bosai.go.jp/event/search.php?LANG=en,,35.15
20180906030800,BO,HKD184,42.79,141.6,42.7,142,C,34.16,52.6,19.71,40.57,20.01,32.55,40,287.15,106.88,325.87,29.21,0.09,6.7,3,hw,124.31,41.9471893442,13.71,27.48,376.7,349,65,107,-999,http://www.fnet.bosai.go.jp/event/search.php?LANG=en,,55.69
20180906030800,BO,HKD185,42.78,141.4,42.7,142,B,49.67,63.78,35.9,51.84,32.15,32.55,40,279.92,99.52,425.12,20.34,0.05,6.7,3,hw,127.18,41.9471893442,13.71,27.48,376.7,349,65,107,-999,http://www.fnet.bosai.go.jp/event/search.php?LANG=en,,52.82
20180906030800,BO,HKD126,42.58,141.93,42.7,142,D,15.09,42.75,8.49,35.54,14.28,32.55,40,203.09,23.04,662.28,149.42,0.23,6.7,3,hw,90,41.9471893442,13.71,27.48,376.7,349,65,107,1.84799995869,http://www.fnet.bosai.go.jp/event/search.php?LANG=en,,90
20180906030800,BO,HKD124,43,141.79,42.7,142,B,37.33,54.72,18.94,37.66,-0.57,32.55,40,332.76,152.61,518.48,17.72,0.03,6.7,3,fw,-178.26,41.9471893442,13.71,27.48,376.7,349,65,107,-999,http://www.fnet.bosai.go.jp/event/search.php?LANG=en,,-1.74000000000001
20180906030800,BO,HKD125,42.76,142.13,42.7,142,C,12.93,42.04,8.24,33.57,-8.24,32.55,40,58.46,238.55,738.04,56.48,0.08,6.7,3,fw,-90,41.9471893442,13.71,27.48,376.7,349,65,107,-999,http://www.fnet.bosai.go.jp/event/search.php?LANG=en,,-90
20180906030800,BO,HKD122,43.2,141.78,42.7,142,C,58.15,70.58,39.67,51.31,-8.5,32.55,40,341.7,161.55,82.64,7.28,0.09,6.7,3,fw,-167.62,41.9471893442,13.71,27.48,376.7,349,65,107,-999,http://www.fnet.bosai.go.jp/event/search.php?LANG=en,,-12.38
20180906030800,BO,HKD040,42.98,142.4,42.7,142,C,45.14,60.31,41.76,52.94,-41.76,32.55,40,46.21,226.48,56.15,5.82,0.1,6.7,3,fw,-90,41.9471893442,13.71,27.48,376.7,349,65,107,-999,http://www.fnet.bosai.go.jp/event/search.php?LANG=en,,-90
20180906030800,BO,HKD120,43.34,141.66,42.7,142,C,76.65,86.46,58.12,66.61,-11.71,32.55,40,339.15,158.92,173.17,7.05,0.04,6.7,3,fw,-168.37,41.9471893442,13.71,27.48,376.7,349,65,107,-999,http://www.fnet.bosai.go.jp/event/search.php?LANG=en,,-11.63
20180906030800,BO,HKD107,42.42,142.5,42.7,142,C,51.5,65.21,35.87,48.43,-8.3,32.55,40,127.08,307.42,58.13,8.95,0.15,6.7,3,fw,-13.37,41.9471893442,13.71,27.48,376.7,349,65,107,-999,http://www.fnet.bosai.go.jp/event/search.php?LANG=en,,-13.37
20180906030800,BO,HKD108,42.25,142.56,42.7,142,C,67.98,78.87,52.84,62.05,-1.65,32.55,40,136.76,317.14,119.01,7.96,0.07,6.7,3,fw,-1.79,41.9471893442,13.71,27.48,376.7,349,65,107,-999,http://www.fnet.bosai.go.jp/event/search.php?LANG=en,,-1.79
20180906030800,BO,HKD128,42.77,141.82,42.7,142,D,16.28,43.19,2.15,33.5,7.92,32.55,40,296.6,116.48,665.17,100.27,0.15,6.7,3,hw,92.31,41.9471893442,13.71,27.48,376.7,349,65,107,1.23199997246,http://www.fnet.bosai.go.jp/event/search.php?LANG=en,,87.69
20180906030800,BO,HKD129,42.63,141.61,42.7,142,B,33.14,51.94,25.07,44.77,30.22,32.55,40,257.43,77.16,290.47,22.57,0.08,6.7,3,hw,100.57,41.9471893442,13.71,27.48,376.7,349,65,107,-999,http://www.fnet.bosai.go.jp/event/search.php?LANG=en,,79.43
20180906030800,BO,HKD105,42.48,142.05,42.7,142,B,24.57,46.94,7.33,35.06,12.94,32.55,40,169.53,349.57,379.96,58.11,0.15,6.7,3,hw,82.74,41.9471893442,13.71,27.48,376.7,349,65,107,1.04999997653,http://www.fnet.bosai.go.jp/event/search.php?LANG=en,,82.74
20180906030800,BO,HKD096,42.7,143.14,42.7,142,B,93.05,101.28,80.39,86.73,-60.16,32.55,40,89.79,270.55,18.12,2.88,0.16,6.7,3,fw,-48.45,41.9471893442,13.71,27.48,376.7,349,65,107,-999,http://www.fnet.bosai.go.jp/event/search.php?LANG=en,,-48.45
20180906030800,BO,HKD099,43.07,142.84,42.7,142,C,80.16,89.59,74.93,81.7,-73.18,32.55,40,58.53,239.1,71.59,7.97,0.11,6.7,3,fw,-77.57,41.9471893442,13.71,27.48,376.7,349,65,107,-999,http://www.fnet.bosai.go.jp/event/search.php?LANG=en,,-77.57
20180906030800,BO,HKD133,42.47,140.87,42.7,142,B,96.46,104.43,86.79,97.4,82.67,32.55,40,255.21,74.44,68.48,4.84,0.07,6.7,3,hw,115.99,41.9471893442,13.71,27.48,376.7,349,65,107,-999,http://www.fnet.bosai.go.jp/event/search.php?LANG=en,,64.01
20180906030800,BO,HKD038,43.17,142.57,42.7,142,B,69.45,80.14,66.19,73.76,-66.19,32.55,40,41.53,221.91,30.17,2.68,0.09,6.7,3,fw,-90,41.9471893442,13.71,27.48,376.7,349,65,107,-999,http://www.fnet.bosai.go.jp/event/search.php?LANG=en,,-90
20180906030800,BO,HKD121,43.33,141.86,42.7,142,C,71.33,81.78,53.38,62.52,-20.82,32.55,40,350.53,170.43,150.27,7.66,0.05,6.7,3,fw,-157.04,41.9471893442,13.71,27.48,376.7,349,65,107,-999,http://www.fnet.bosai.go.jp/event/search.php?LANG=en,,-22.96
20180906030800,BO,HKD039,43.34,142.38,42.7,142,B,77.91,87.58,66.17,73.74,-59.19,32.55,40,23.59,203.85,35.92,7,0.19,6.7,3,fw,-116.55,41.9471893442,13.71,27.48,376.7,349,65,107,-999,http://www.fnet.bosai.go.jp/event/search.php?LANG=en,,-63.45
20180906030800,BO,HKD179,43.22,141.52,42.7,142,D,70.26,80.85,52.56,61.83,1.16,32.55,40,326.06,145.73,92.7,11,0.12,6.7,3,hw,178.73,41.9471893442,13.71,27.48,376.7,349,65,107,-999,http://www.fnet.bosai.go.jp/event/search.php?LANG=en,,1.27000000000001
20180906030800,BO,HKD134,42.67,141.08,42.7,142,B,75.54,85.48,63.45,75.56,56.8,32.55,40,267.88,87.25,169.16,9.45,0.06,6.7,3,hw,123.59,41.9471893442,13.71,27.48,376.7,349,65,107,-999,http://www.fnet.bosai.go.jp/event/search.php?LANG=en,,56.41
20180906030800,BO,HKD131,42.42,141.08,42.7,142,B,81.55,90.83,73.84,85.7,75.2,32.55,40,247.98,67.36,294.84,9.74,0.03,6.7,3,hw,108.52,41.9471893442,13.71,27.48,376.7,349,65,107,-999,http://www.fnet.bosai.go.jp/event/search.php?LANG=en,,71.48
20180906030800,BO,HKD130,42.56,141.35,42.7,142,B,55.46,68.38,46.83,61.58,49.53,32.55,40,254.26,73.82,165,9.91,0.06,6.7,3,hw,108.67,41.9471893442,13.71,27.48,376.7,349,65,107,-999,http://www.fnet.bosai.go.jp/event/search.php?LANG=en,,71.33
20180906030800,BO,HKD119,43.52,142.19,42.7,142,C,92.41,100.7,77.21,83.79,-57.49,32.55,40,9.64,189.77,57.06,4.78,0.08,6.7,3,fw,-131.87,41.9471893442,13.71,27.48,376.7,349,65,107,-999,http://www.fnet.bosai.go.jp/event/search.php?LANG=en,,-48.13
20180906030800,BO,HKD118,43.55,141.92,42.7,142,B,94.94,103.02,77.53,84.08,-40.52,32.55,40,355.97,175.92,68.06,4.42,0.07,6.7,3,fw,-148.48,41.9471893442,13.71,27.48,376.7,349,65,107,-999,http://www.fnet.bosai.go.jp/event/search.php?LANG=en,,-31.52
20180906030800,BO,HKD177,43.4,141.43,42.7,142,C,90.39,98.85,72.09,79.1,-3.91,32.55,40,329.55,149.17,61.36,3.55,0.06,6.7,3,fw,-176.89,41.9471893442,13.71,27.48,376.7,349,65,107,-999,http://www.fnet.bosai.go.jp/event/search.php?LANG=en,,-3.11000000000001
20180906030800,BO,HKD176,43.53,141.59,42.7,142,C,98.25,106.08,79.74,86.13,-19.51,32.55,40,340.4,160.13,97.05,4.73,0.05,6.7,3,fw,-165.83,41.9471893442,13.71,27.48,376.7,349,65,107,-999,http://www.fnet.bosai.go.jp/event/search.php?LANG=en,,-14.17
20180906030800,BO,HKD135,42.55,140.89,42.7,142,C,92.78,101.03,82.02,92.86,75.61,32.55,40,260.26,79.51,35.62,3.5,0.1,6.7,3,hw,119.65,41.9471893442,13.71,27.48,376.7,349,65,107,-999,http://www.fnet.bosai.go.jp/event/search.php?LANG=en,,60.35
20180906030800,BO,HKD178,43.17,141.3,42.7,142,C,77.28,87.02,61.89,71.17,18.08,32.55,40,312.97,132.5,109.45,15.47,0.14,6.7,3,hw,163.4,41.9471893442,13.71,27.48,376.7,349,65,107,-999,http://www.fnet.bosai.go.jp/event/search.php?LANG=en,,16.6
20180906030800,BO,HKD132,42.35,141.03,42.7,142,C,88.62,97.23,81.77,93,83.87,32.55,40,244.17,63.52,135.84,8.22,0.06,6.7,3,hw,106.17,41.9471893442,13.71,27.48,376.7,349,65,107,-999,http://www.fnet.bosai.go.jp/event/search.php?LANG=en,,73.83
20180906030800,BO,HKD102,42.88,142.45,42.7,142,C,41.65,57.75,37.06,49.32,-36.94,32.55,40,61.59,241.9,90.24,10.79,0.12,6.7,3,fw,-85.41,41.9471893442,13.71,27.48,376.7,349,65,107,-999,http://www.fnet.bosai.go.jp/event/search.php?LANG=en,,-85.41
20180906030800,BO,HKD110,42.13,142.94,42.7,142,C,99.63,107.36,84,90.08,-17.08,32.55,40,129.09,309.72,35.4,3.53,0.1,6.7,3,fw,-11.73,41.9471893442,13.71,27.48,376.7,349,65,107,-999,http://www.fnet.bosai.go.jp/event/search.php?LANG=en,,-11.73
20180906030800,BO,HKD103,42.73,142.3,42.7,142,C,24.55,46.93,16.4,36.44,-16.21,32.55,40,82.75,262.95,657.09,38.92,0.06,6.7,3,fw,-81.3,41.9471893442,13.71,27.48,376.7,349,65,107,-999,http://www.fnet.bosai.go.jp/event/search.php?LANG=en,,-81.3
20180906030800,BO,HKD104,42.59,142.13,42.7,142,C,16.39,43.23,0.34,32.82,4.23,32.55,40,138.99,319.08,272.77,24.16,0.09,6.7,3,hw,85.46,41.9471893442,13.71,27.48,376.7,349,65,107,-999,http://www.fnet.bosai.go.jp/event/search.php?LANG=en,,85.46
20180906030800,BO,HKD123,42.99,142.01,42.7,142,B,32.59,51.6,17.1,36.77,-6.98,32.55,40,1.22,181.22,101.84,8.97,0.09,6.7,3,fw,-155.9,41.9471893442,13.71,27.48,376.7,349,65,107,-999,http://www.fnet.bosai.go.jp/event/search.php?LANG=en,,-24.1
20160414212600,BO,NGS008,32.92,130.18,32.74,130.81,B,61.83,62.8,60.64,62.5,61.62,3.32,11,289.15,108.81,18.48,1.43,0.08,6.5,0,hw,78.64,62.6030920932,13,14,182,212,80,180.5,-999,http://equake-rc.info/SRCMOD/searchmodels/viewmodel/s2016KUMAMO01ASAN/,"Asano, K. and T. Iwata. 2016. Source rupture processes of the foreshock and mainshock in the 2016 Kumamoto earthquake sequence estimated from the kinematic waveform inversion of strong motion data. Earth Planets Space 68:147, doi:10.1186/s40623-016-0519-9.",78.64
20160414212600,BO,NGS009,32.85,130.02,32.74,130.81,B,74.6,75.41,72.39,74.05,69.52,3.32,11,279.08,98.66,26.98,1.76,0.07,6.5,0,hw,68.95,62.6030920932,13,14,182,212,80,180.5,-999,http://equake-rc.info/SRCMOD/searchmodels/viewmodel/s2016KUMAMO01ASAN/,"Asano, K. and T. Iwata. 2016. Source rupture processes of the foreshock and mainshock in the 2016 Kumamoto earthquake sequence estimated from the kinematic waveform inversion of strong motion data. Earth Planets Space 68:147, doi:10.1186/s40623-016-0519-9.",68.95
20160414212600,BO,KMM009,32.69,130.99,32.74,130.81,B,17.71,20.84,17.37,17.68,-17.37,3.32,11,110.47,290.57,532.11,18.37,0.03,6.5,0,fw,-90,62.6030920932,13,14,182,212,80,180.5,-999,http://equake-rc.info/SRCMOD/searchmodels/viewmodel/s2016KUMAMO01ASAN/,"Asano, K. and T. Iwata. 2016. Source rupture processes of the foreshock and mainshock in the 2016 Kumamoto earthquake sequence estimated from the kinematic waveform inversion of strong motion data. Earth Planets Space 68:147, doi:10.1186/s40623-016-0519-9.",-90
20160414212600,BO,SAG008,33.1,130.1,32.74,130.81,B,77.54,78.31,77.5,79.13,79.74,3.32,11,301.39,121.01,19.8,2.08,0.1,6.5,0,hw,88.79,62.6030920932,13,14,182,212,80,180.5,-999,http://equake-rc.info/SRCMOD/searchmodels/viewmodel/s2016KUMAMO01ASAN/,"Asano, K. and T. Iwata. 2016. Source rupture processes of the foreshock and mainshock in the 2016 Kumamoto earthquake sequence estimated from the kinematic waveform inversion of strong motion data. Earth Planets Space 68:147, doi:10.1186/s40623-016-0519-9.",88.79
20160414212600,BO,MYZ020,32.46,131.15,32.74,130.81,B,44.94,46.26,44.3,44.42,-44.28,3.32,11,134.91,315.09,77.77,4.03,0.05,6.5,0,fw,-88.46,62.6030920932,13,14,182,212,80,180.5,-999,http://equake-rc.info/SRCMOD/searchmodels/viewmodel/s2016KUMAMO01ASAN/,"Asano, K. and T. Iwata. 2016. Source rupture processes of the foreshock and mainshock in the 2016 Kumamoto earthquake sequence estimated from the kinematic waveform inversion of strong motion data. Earth Planets Space 68:147, doi:10.1186/s40623-016-0519-9.",-88.46
20160414212600,BO,NGS005,33.04,129.92,32.74,130.81,C,89.63,90.3,88.57,90.03,89.25,3.32,11,291.68,111.19,15.05,1.4,0.09,6.5,0,hw,79.42,62.6030920932,13,14,182,212,80,180.5,-999,http://equake-rc.info/SRCMOD/searchmodels/viewmodel/s2016KUMAMO01ASAN/,"Asano, K. and T. Iwata. 2016. Source rupture processes of the foreshock and mainshock in the 2016 Kumamoto earthquake sequence estimated from the kinematic waveform inversion of strong motion data. Earth Planets Space 68:147, doi:10.1186/s40623-016-0519-9.",79.42
20160414212600,BO,KGS003,32.06,130.59,32.74,130.81,C,78.85,79.61,73.75,73.82,-19.64,3.32,11,195.32,15.2,50.76,2.69,0.05,6.5,0,fw,-15.45,62.6030920932,13,14,182,212,80,180.5,-999,http://equake-rc.info/SRCMOD/searchmodels/viewmodel/s2016KUMAMO01ASAN/,"Asano, K. and T. Iwata. 2016. Source rupture processes of the foreshock and mainshock in the 2016 Kumamoto earthquake sequence estimated from the kinematic waveform inversion of strong motion data. Earth Planets Space 68:147, doi:10.1186/s40623-016-0519-9.",-15.45
20160414212600,BO,OIT008,33.26,131.02,32.74,130.81,B,60.32,61.31,52.22,52.76,11.2,3.32,11,19.15,199.26,23.01,1.46,0.06,6.5,0,hw,167.72,62.6030920932,13,14,182,212,80,180.5,-999,http://equake-rc.info/SRCMOD/searchmodels/viewmodel/s2016KUMAMO01ASAN/,"Asano, K. and T. Iwata. 2016. Source rupture processes of the foreshock and mainshock in the 2016 Kumamoto earthquake sequence estimated from the kinematic waveform inversion of strong motion data. Earth Planets Space 68:147, doi:10.1186/s40623-016-0519-9.",12.28
20160414212600,BO,OIT009,33.26,131.34,32.74,130.81,C,75.94,76.73,67.58,67.66,-15.65,3.32,11,41.11,221.4,10.65,1.76,0.17,6.5,0,fw,-166.61,62.6030920932,13,14,182,212,80,180.5,-999,http://equake-rc.info/SRCMOD/searchmodels/viewmodel/s2016KUMAMO01ASAN/,"Asano, K. and T. Iwata. 2016. Source rupture processes of the foreshock and mainshock in the 2016 Kumamoto earthquake sequence estimated from the kinematic waveform inversion of strong motion data. Earth Planets Space 68:147, doi:10.1186/s40623-016-0519-9.",-166.61
20160414212600,BO,OIT006,33.42,131.31,32.74,130.81,B,89.25,89.93,80.89,80.96,-6.31,3.32,11,31.88,212.15,12.4,0.77,0.06,6.5,0,fw,-175.52,62.6030920932,13,14,182,212,80,180.5,-999,http://equake-rc.info/SRCMOD/searchmodels/viewmodel/s2016KUMAMO01ASAN/,"Asano, K. and T. Iwata. 2016. Source rupture processes of the foreshock and mainshock in the 2016 Kumamoto earthquake sequence estimated from the kinematic waveform inversion of strong motion data. Earth Planets Space 68:147, doi:10.1186/s40623-016-0519-9.",-175.52
20160414212600,BO,OIT005,33.45,131.11,32.74,130.81,B,84.08,84.8,76,76.45,13.98,3.32,11,19.79,199.96,14.59,0.65,0.04,6.5,0,hw,169.45,62.6030920932,13,14,182,212,80,180.5,-999,http://equake-rc.info/SRCMOD/searchmodels/viewmodel/s2016KUMAMO01ASAN/,"Asano, K. and T. Iwata. 2016. Source rupture processes of the foreshock and mainshock in the 2016 Kumamoto earthquake sequence estimated from the kinematic waveform inversion of strong motion data. Earth Planets Space 68:147, doi:10.1186/s40623-016-0519-9.",10.55
20160414212600,BO,KMM016,32.2,130.78,32.74,130.81,C,60.53,61.52,55.89,55.98,-29.34,3.32,11,182.88,2.87,38.96,4.13,0.11,6.5,0,fw,-31.67,62.6030920932,13,14,182,212,80,180.5,-999,http://equake-rc.info/SRCMOD/searchmodels/viewmodel/s2016KUMAMO01ASAN/,"Asano, K. and T. Iwata. 2016. Source rupture processes of the foreshock and mainshock in the 2016 Kumamoto earthquake sequence estimated from the kinematic waveform inversion of strong motion data. Earth Planets Space 68:147, doi:10.1186/s40623-016-0519-9.",-31.67
20160414212600,BO,KMM017,32.26,130.93,32.74,130.81,B,54.96,56.05,51.16,51.27,-39.4,3.32,11,168.37,348.43,37.68,3.7,0.1,6.5,0,fw,-50.36,62.6030920932,13,14,182,212,80,180.5,-999,http://equake-rc.info/SRCMOD/searchmodels/viewmodel/s2016KUMAMO01ASAN/,"Asano, K. and T. Iwata. 2016. Source rupture processes of the foreshock and mainshock in the 2016 Kumamoto earthquake sequence estimated from the kinematic waveform inversion of strong motion data. Earth Planets Space 68:147, doi:10.1186/s40623-016-0519-9.",-50.36
20160414212600,BO,KMM014,32.4,130.83,32.74,130.81,A,38.36,39.91,34,34.16,-22.32,3.32,11,177.36,357.37,62.76,2.57,0.04,6.5,0,fw,-41.03,62.6030920932,13,14,182,212,80,180.5,-999,http://equake-rc.info/SRCMOD/searchmodels/viewmodel/s2016KUMAMO01ASAN/,"Asano, K. and T. Iwata. 2016. Source rupture processes of the foreshock and mainshock in the 2016 Kumamoto earthquake sequence estimated from the kinematic waveform inversion of strong motion data. Earth Planets Space 68:147, doi:10.1186/s40623-016-0519-9.",-41.03
20160414212600,BO,KMM015,32.22,130.4,32.74,130.81,C,69.57,70.44,64.17,64.44,6.45,3.32,11,213.14,32.92,38.79,3.85,0.1,6.5,0,hw,5.75,62.6030920932,13,14,182,212,80,180.5,-999,http://equake-rc.info/SRCMOD/searchmodels/viewmodel/s2016KUMAMO01ASAN/,"Asano, K. and T. Iwata. 2016. Source rupture processes of the foreshock and mainshock in the 2016 Kumamoto earthquake sequence estimated from the kinematic waveform inversion of strong motion data. Earth Planets Space 68:147, doi:10.1186/s40623-016-0519-9.",5.75
20160414212600,BO,KMM012,32.51,130.6,32.74,130.81,C,32.37,34.19,26.92,27.45,5.03,3.32,11,216.66,36.55,155.13,14.95,0.1,6.5,0,hw,10.64,62.6030920932,13,14,182,212,80,180.5,-999,http://equake-rc.info/SRCMOD/searchmodels/viewmodel/s2016KUMAMO01ASAN/,"Asano, K. and T. Iwata. 2016. Source rupture processes of the foreshock and mainshock in the 2016 Kumamoto earthquake sequence estimated from the kinematic waveform inversion of strong motion data. Earth Planets Space 68:147, doi:10.1186/s40623-016-0519-9.",10.64
20160414212600,BO,KMM013,32.37,130.51,32.74,130.81,C,50.33,51.51,44.9,45.23,5.34,3.32,11,213.89,33.73,63.05,6.01,0.1,6.5,0,hw,6.8,62.6030920932,13,14,182,212,80,180.5,-999,http://equake-rc.info/SRCMOD/searchmodels/viewmodel/s2016KUMAMO01ASAN/,"Asano, K. and T. Iwata. 2016. Source rupture processes of the foreshock and mainshock in the 2016 Kumamoto earthquake sequence estimated from the kinematic waveform inversion of strong motion data. Earth Planets Space 68:147, doi:10.1186/s40623-016-0519-9.",6.8
20160414212600,BO,KMM010,32.61,130.49,32.74,130.81,D,33.32,35.09,28.74,30.37,20.05,3.32,11,244.75,64.57,64.9,8.45,0.13,6.5,0,hw,41.62,62.6030920932,13,14,182,212,80,180.5,-999,http://equake-rc.info/SRCMOD/searchmodels/viewmodel/s2016KUMAMO01ASAN/,"Asano, K. and T. Iwata. 2016. Source rupture processes of the foreshock and mainshock in the 2016 Kumamoto earthquake sequence estimated from the kinematic waveform inversion of strong motion data. Earth Planets Space 68:147, doi:10.1186/s40623-016-0519-9.",41.62
20160414212600,BO,KMM011,32.62,130.87,32.74,130.81,C,14.84,18.47,12.24,12.68,-11.99,3.32,11,158.87,338.9,354.86,20.12,0.06,6.5,0,fw,-78.39,62.6030920932,13,14,182,212,80,180.5,-999,http://equake-rc.info/SRCMOD/searchmodels/viewmodel/s2016KUMAMO01ASAN/,"Asano, K. and T. Iwata. 2016. Source rupture processes of the foreshock and mainshock in the 2016 Kumamoto earthquake sequence estimated from the kinematic waveform inversion of strong motion data. Earth Planets Space 68:147, doi:10.1186/s40623-016-0519-9.",-78.39
